{
"type": "FeatureCollection",
"name": "ccamlr_statistical_areas",
"crs": { "type": "name", "properties": { "name": "urn:ogc:def:crs:EPSG::6932" } },
"xy_coordinate_resolution": 1,
"features": [
{"type":"Feature","properties":{"GAR_ID":74966,"GAR_Name":"Subarea 88.3","GAR_Short_Label":"883","GAR_Long_Label":"88.3","GAR_Start_Date":"1985-09-12","GAR_Size":2335727.01},"geometry":{"type":"Polygon","coordinates":[[[-2158779,796331],[-2159172,785874],[-3110213,1132025],[-3179828,918478],[-3209161,810056],[-3246222,645714],[-3282541,424062],[-3295040,312440],[-3306669,144372],[-3308847,-80224],[-3300479,-248486],[-3290147,-360330],[-3276026,-471758],[-3247778,-637843],[-3197040,-856644],[-1601107,-429015],[-1602781,-423752],[-1599835,-416938],[-1606879,-403808],[-1603755,-397106],[-1616461,-380747],[-1617204,-354002],[-1619014,-346090],[-1625974,-337288],[-1619492,-331059],[-1599701,-329268],[-1597429,-324900],[-1598985,-315781],[-1592806,-313884],[-1593120,-308812],[-1604479,-296579],[-1604516,-289182],[-1607021,-289499],[-1604151,-284564],[-1607668,-285451],[-1605267,-282961],[-1609459,-278998],[-1609299,-273020],[-1613496,-272993],[-1612847,-267891],[-1614916,-266776],[-1619743,-274017],[-1617528,-264055],[-1619923,-262893],[-1622038,-268377],[-1625622,-263637],[-1629509,-267319],[-1629896,-258442],[-1636671,-269671],[-1646971,-274002],[-1645654,-278520],[-1651401,-281164],[-1650594,-300336],[-1656417,-309470],[-1660794,-305601],[-1658503,-299028],[-1661861,-294441],[-1664926,-296255],[-1671923,-292800],[-1675293,-298690],[-1681493,-296798],[-1685284,-301503],[-1693074,-293321],[-1697352,-292997],[-1699405,-297854],[-1696799,-301131],[-1702299,-302816],[-1698827,-307971],[-1698472,-317497],[-1689925,-324127],[-1688376,-343321],[-1708997,-345449],[-1715069,-341841],[-1715672,-346960],[-1725153,-346448],[-1738256,-355575],[-1743766,-355878],[-1742325,-366423],[-1746324,-372652],[-1744947,-380071],[-1747496,-384577],[-1744205,-394552],[-1746881,-400283],[-1767742,-401536],[-1770037,-408574],[-1777383,-410212],[-1780297,-407769],[-1782965,-387238],[-1778510,-369634],[-1782496,-359517],[-1771612,-349945],[-1774045,-332787],[-1777689,-333091],[-1782785,-327255],[-1781415,-314864],[-1788578,-300583],[-1792695,-298946],[-1795829,-303472],[-1797966,-301169],[-1796076,-291622],[-1804841,-285669],[-1806225,-303706],[-1808184,-305546],[-1812854,-300218],[-1815359,-308872],[-1812048,-310639],[-1823691,-313435],[-1822151,-321728],[-1825927,-329807],[-1819922,-356088],[-1821295,-363502],[-1815759,-375022],[-1818493,-381974],[-1810764,-400319],[-1810987,-414662],[-1821537,-424188],[-1824835,-431676],[-1832743,-431133],[-1855728,-443201],[-1867621,-440962],[-1875751,-430974],[-1874103,-401883],[-1862861,-403083],[-1861028,-400225],[-1846981,-412299],[-1851522,-394014],[-1845590,-392897],[-1845104,-390108],[-1859435,-362615],[-1860854,-355422],[-1852543,-337084],[-1859807,-332436],[-1863883,-323149],[-1861455,-318719],[-1870216,-289250],[-1868413,-276469],[-1872005,-258196],[-1871107,-253661],[-1866096,-253502],[-1852014,-258227],[-1852183,-253913],[-1860413,-247865],[-1861892,-243259],[-1847228,-212645],[-1848160,-196430],[-1844450,-191669],[-1854180,-186397],[-1860376,-170589],[-1856553,-162507],[-1859371,-147417],[-1850004,-140031],[-1855278,-127632],[-1863390,-122693],[-1863780,-116428],[-1867736,-117889],[-1867260,-98289],[-1873096,-91351],[-1869964,-89759],[-1872057,-81934],[-1869425,-63488],[-1863914,-58415],[-1862911,-48950],[-1857102,-36232],[-1853635,-34786],[-1861194,-20512],[-1859653,-17139],[-1875172,-6998],[-1878791,4666],[-1875758,9630],[-1881480,23534],[-1887399,23925],[-1897313,31504],[-1902697,28837],[-1921859,30588],[-1930290,19384],[-1931393,25540],[-1923682,58978],[-1917662,62564],[-1907138,63139],[-1898573,50658],[-1897381,55142],[-1892798,51995],[-1887338,52797],[-1876319,42155],[-1871710,47724],[-1861808,50908],[-1867151,56603],[-1863106,66744],[-1870246,72322],[-1867256,80089],[-1870634,85446],[-1867447,87415],[-1861649,85316],[-1857659,93182],[-1848046,97382],[-1845828,106276],[-1849126,108268],[-1850583,115479],[-1858624,117770],[-1858273,124879],[-1866478,131887],[-1866845,135803],[-1862081,140659],[-1847143,145221],[-1839290,146925],[-1833574,143924],[-1834576,153551],[-1826873,157283],[-1819397,174485],[-1821588,182968],[-1818485,199877],[-1806735,195617],[-1802195,197559],[-1799320,201952],[-1803505,205182],[-1802668,209760],[-1796923,213653],[-1799335,223064],[-1795784,222758],[-1795475,226982],[-1775875,247035],[-1782707,251777],[-1787506,273155],[-1792958,279535],[-1805251,283316],[-1818171,276785],[-1837343,279616],[-1842151,284718],[-1837529,297926],[-1820030,307788],[-1818609,312390],[-1825571,310163],[-1842341,311693],[-1862551,305985],[-1868077,308213],[-1870463,316144],[-1857485,338480],[-1827094,351929],[-1817636,360831],[-1810758,360935],[-1792217,352666],[-1790215,360334],[-1797212,397229],[-1790639,404447],[-1793369,411292],[-1791799,418496],[-1779400,420434],[-1757923,398237],[-1753009,398620],[-1751786,405183],[-1757440,413367],[-1750439,428349],[-1754291,431777],[-1755425,444760],[-1762932,446601],[-1754793,451518],[-1763328,462610],[-1758393,473817],[-1746269,481338],[-1752979,484098],[-1750832,492579],[-1746196,495466],[-1749922,502933],[-1747218,507144],[-1754798,514289],[-1752606,517160],[-1756355,529594],[-1765171,536517],[-1760922,538930],[-1761075,546192],[-1755394,549319],[-1754156,557348],[-1763671,558322],[-1756987,576584],[-1760350,580247],[-1755390,588814],[-1762429,595831],[-1758720,597911],[-1760602,610873],[-1755171,617181],[-1756113,622148],[-1751572,624578],[-1751657,630936],[-1757440,632438],[-1754704,638660],[-1816522,661160],[-1815588,688219],[-1820070,693488],[-1827277,692487],[-1831598,698289],[-1829488,704329],[-1842645,716512],[-1841415,720705],[-1837036,721592],[-1837919,726750],[-1853919,736609],[-1862666,736314],[-1871626,748020],[-1900180,762943],[-1915229,764153],[-1942779,776391],[-1983524,788046],[-2003507,790223],[-2010486,788321],[-2035071,792034],[-2072115,787654],[-2096888,791026],[-2116699,798802],[-2124790,795226],[-2136748,798695],[-2158779,796331]]]}},
{"type":"Feature","properties":{"GAR_ID":74964,"GAR_Name":"Subarea 88.2","GAR_Short_Label":"882","GAR_Long_Label":"88.2","GAR_Start_Date":"1985-09-12","GAR_Size":5002840.68},"geometry":{"type":"Polygon","coordinates":[[[-1601107,-429015],[-3197040,-856644],[-3148636,-1020293],[-3111707,-1127912],[-3026866,-1339025],[-2927722,-1543810],[-2844256,-1692664],[-2721248,-1884069],[-2585381,-2066570],[-2475425,-2197083],[-2318634,-2361957],[-2150887,-2515669],[-1972975,-2657494],[-1785740,-2786761],[-1639727,-2875100],[-1438330,-2980958],[-1230136,-3072730],[-1016129,-3149982],[-797320,-3212349],[-574744,-3259536],[-104987,-595410],[-122053,-584318],[-124556,-560377],[-137011,-567578],[-146672,-561616],[-159151,-547691],[-169425,-520633],[-162664,-510177],[-164832,-502790],[-170940,-499773],[-172947,-489307],[-178305,-487575],[-183716,-489886],[-201834,-476773],[-212005,-476297],[-217051,-479698],[-226595,-476717],[-237104,-466584],[-237711,-453946],[-241430,-456773],[-247130,-453731],[-254536,-457435],[-273165,-456871],[-271036,-461045],[-279485,-474583],[-274759,-481532],[-280974,-491867],[-278958,-496593],[-252285,-484610],[-241746,-484511],[-235818,-491976],[-237670,-493423],[-225078,-496624],[-217936,-511855],[-216013,-527261],[-233785,-519424],[-231397,-522972],[-235513,-521107],[-234311,-524141],[-238254,-524994],[-228034,-534642],[-214796,-540462],[-214823,-544192],[-196594,-563566],[-169120,-585212],[-168842,-592622],[-174312,-592188],[-174698,-596838],[-165157,-601363],[-158490,-599822],[-148258,-609184],[-149242,-612165],[-168047,-603545],[-183810,-601981],[-173750,-613256],[-175647,-620696],[-167642,-633390],[-171567,-641025],[-186879,-637618],[-184403,-645583],[-187188,-645942],[-186571,-652225],[-180204,-667406],[-172647,-674054],[-163469,-668901],[-151438,-677819],[-148869,-677516],[-151291,-671408],[-143325,-678103],[-142356,-684293],[-147913,-681837],[-148851,-684196],[-142104,-689782],[-140630,-698725],[-143319,-706848],[-137698,-711419],[-138118,-714682],[-141100,-714727],[-128524,-728331],[-130519,-739469],[-135498,-734606],[-135146,-743647],[-153137,-736666],[-157271,-742459],[-175350,-737973],[-187153,-738952],[-195361,-734369],[-197139,-725825],[-192646,-716701],[-193834,-707519],[-189539,-702224],[-191018,-699120],[-197473,-696082],[-200708,-708858],[-217721,-713124],[-220080,-710285],[-218037,-705891],[-224159,-700836],[-219306,-694551],[-221473,-687480],[-234192,-687865],[-240003,-682280],[-246765,-684348],[-253086,-673757],[-258038,-674310],[-263016,-681886],[-279155,-680900],[-287732,-691229],[-296277,-695651],[-291864,-702830],[-281314,-708766],[-280786,-713680],[-302747,-715974],[-309292,-708917],[-317480,-706156],[-323848,-708161],[-326711,-716706],[-341719,-730492],[-374382,-734664],[-384047,-739293],[-387699,-759562],[-382128,-792722],[-386474,-796434],[-386096,-800161],[-382007,-812985],[-394196,-821808],[-406847,-823882],[-409625,-831237],[-398467,-868985],[-374988,-889920],[-376424,-895842],[-385997,-902991],[-397346,-908198],[-429107,-901548],[-457902,-872156],[-507784,-854723],[-520594,-854314],[-521737,-858911],[-525476,-853725],[-545565,-857825],[-545992,-862304],[-542176,-863072],[-543706,-865627],[-536503,-873288],[-538514,-880058],[-532275,-882920],[-528691,-890131],[-536044,-889166],[-530176,-893867],[-537738,-895911],[-547000,-887093],[-548814,-889985],[-528814,-906005],[-533656,-906126],[-532176,-910193],[-535016,-910682],[-524314,-918477],[-528574,-919291],[-517412,-934523],[-531370,-937023],[-532803,-951776],[-540252,-947842],[-545457,-949142],[-547538,-955148],[-550990,-955769],[-550413,-960563],[-564045,-943990],[-569437,-944915],[-565074,-950900],[-566688,-953772],[-583401,-942659],[-585406,-953033],[-582692,-969391],[-588355,-965962],[-591971,-956554],[-598240,-953815],[-605261,-953169],[-600142,-961436],[-601549,-963550],[-607277,-959387],[-607130,-962704],[-610755,-963122],[-574379,-1012579],[-557939,-1048199],[-567827,-1053275],[-561785,-1053563],[-561059,-1056591],[-569098,-1058988],[-554507,-1055382],[-555458,-1062200],[-562360,-1062580],[-567970,-1064742],[-555913,-1065286],[-567419,-1072887],[-567787,-1077631],[-561390,-1070919],[-560838,-1074053],[-555532,-1071451],[-557500,-1077348],[-549441,-1076070],[-549330,-1079148],[-522610,-1098564],[-516781,-1108697],[-516916,-1117066],[-503791,-1155912],[-505484,-1165456],[-517607,-1166338],[-518621,-1172228],[-539389,-1165571],[-543579,-1165212],[-545826,-1169835],[-552980,-1163883],[-556521,-1167482],[-561289,-1165511],[-567668,-1174208],[-567533,-1176440],[-563529,-1175145],[-564615,-1179663],[-561600,-1180623],[-565100,-1184109],[-563700,-1187861],[-556954,-1185507],[-550170,-1188389],[-549224,-1193480],[-554894,-1194251],[-555202,-1191091],[-557182,-1197405],[-549646,-1194798],[-548445,-1199373],[-546159,-1197276],[-536660,-1202483],[-533096,-1201305],[-521743,-1212037],[-513645,-1205069],[-507157,-1207674],[-506925,-1214951],[-496633,-1245339],[-494534,-1245046],[-493072,-1262554],[-516514,-1286773],[-514437,-1293077],[-522114,-1301751],[-520457,-1310193],[-530185,-1324103],[-531128,-1335381],[-537587,-1338385],[-542708,-1335415],[-550167,-1296092],[-554066,-1300093],[-565537,-1302048],[-568449,-1305936],[-567601,-1314047],[-577916,-1320044],[-590187,-1314640],[-596567,-1299141],[-602479,-1303536],[-610401,-1300302],[-609843,-1294902],[-621480,-1288581],[-622409,-1281801],[-633187,-1270415],[-631734,-1257440],[-622313,-1257974],[-622268,-1253170],[-631746,-1248056],[-635528,-1241689],[-637656,-1243292],[-640544,-1234661],[-652667,-1253266],[-657896,-1252260],[-655503,-1237291],[-659502,-1241384],[-668349,-1233810],[-669657,-1226936],[-664461,-1224671],[-669345,-1220551],[-674007,-1207786],[-680770,-1174599],[-697327,-1172753],[-697753,-1185748],[-692002,-1189835],[-695819,-1195001],[-702235,-1189256],[-708319,-1172594],[-710470,-1173847],[-711605,-1170969],[-715249,-1173495],[-718925,-1187041],[-723555,-1182493],[-734960,-1183605],[-744150,-1180251],[-746087,-1183489],[-736191,-1192665],[-725995,-1210724],[-729588,-1216765],[-734573,-1217799],[-732355,-1221392],[-738755,-1223063],[-742635,-1228435],[-747127,-1228116],[-752055,-1222393],[-755745,-1204516],[-749391,-1183706],[-753599,-1193191],[-753223,-1187126],[-757737,-1188970],[-763655,-1183822],[-766432,-1193581],[-774580,-1193449],[-773241,-1165754],[-770493,-1159981],[-779536,-1150539],[-781442,-1156600],[-784716,-1154864],[-788108,-1145153],[-792126,-1151398],[-792938,-1162708],[-789896,-1165243],[-786037,-1163646],[-785326,-1167328],[-793139,-1166573],[-796057,-1177850],[-806249,-1170203],[-810982,-1171199],[-807737,-1193562],[-801574,-1198707],[-802021,-1205896],[-809515,-1202332],[-811607,-1195649],[-821209,-1185833],[-820299,-1196477],[-823903,-1201851],[-818733,-1205371],[-819183,-1214991],[-833796,-1212032],[-836992,-1217439],[-827493,-1232116],[-827525,-1239537],[-824393,-1242613],[-828314,-1248425],[-821462,-1269286],[-799458,-1281693],[-784764,-1281151],[-765390,-1302037],[-764186,-1308110],[-768522,-1313544],[-775241,-1315129],[-785919,-1308435],[-799287,-1308963],[-800478,-1316274],[-811218,-1320219],[-816544,-1317267],[-821063,-1302650],[-828310,-1295124],[-831488,-1279466],[-836298,-1275134],[-834129,-1270805],[-836563,-1267542],[-840674,-1270319],[-839916,-1258332],[-846690,-1254834],[-848193,-1247178],[-856101,-1245655],[-860626,-1249119],[-861988,-1259276],[-857250,-1271173],[-855588,-1293158],[-869469,-1302932],[-879728,-1303113],[-896640,-1288481],[-896321,-1291264],[-906287,-1290800],[-913877,-1284692],[-921711,-1286111],[-926306,-1282066],[-929591,-1289728],[-934006,-1290980],[-933719,-1301509],[-962822,-1292118],[-974869,-1279446],[-984905,-1287168],[-990473,-1284897],[-996043,-1268783],[-985521,-1241986],[-992915,-1240597],[-1002153,-1222245],[-1007351,-1235445],[-1004879,-1253714],[-1010087,-1260428],[-1019416,-1250550],[-1034259,-1243657],[-1049146,-1254262],[-1074385,-1258273],[-1089964,-1244601],[-1113629,-1230590],[-1116888,-1231406],[-1123284,-1219641],[-1122570,-1207674],[-1127165,-1210394],[-1138232,-1194609],[-1141067,-1195709],[-1140898,-1199883],[-1144088,-1198418],[-1141012,-1209977],[-1148595,-1225323],[-1161758,-1238680],[-1166169,-1232125],[-1179337,-1230102],[-1186169,-1214743],[-1196164,-1223418],[-1208130,-1222316],[-1220052,-1200150],[-1207304,-1190381],[-1208205,-1184326],[-1203778,-1178191],[-1210178,-1174749],[-1210675,-1169206],[-1214851,-1168774],[-1213660,-1162179],[-1244357,-1152218],[-1243582,-1143896],[-1248051,-1142881],[-1250193,-1138073],[-1259940,-1136628],[-1263418,-1128763],[-1261948,-1119924],[-1275248,-1110331],[-1281267,-1101221],[-1285831,-1080211],[-1308576,-1069030],[-1318893,-1056148],[-1327595,-1056343],[-1337007,-1045586],[-1341862,-1046550],[-1348249,-1037920],[-1357887,-1032304],[-1363503,-1023845],[-1360770,-1020226],[-1363668,-1018860],[-1366918,-1004630],[-1374564,-996528],[-1381725,-995797],[-1382473,-990386],[-1405516,-961114],[-1402713,-946528],[-1411698,-935875],[-1419706,-931633],[-1418766,-922770],[-1425510,-919602],[-1428703,-913055],[-1434537,-912295],[-1432508,-906899],[-1438885,-903875],[-1439496,-892889],[-1444155,-893661],[-1447828,-885934],[-1453676,-883010],[-1453326,-878610],[-1457304,-877831],[-1456385,-873370],[-1471807,-863376],[-1471062,-856865],[-1475562,-859036],[-1475114,-853623],[-1487900,-844623],[-1489535,-838507],[-1496705,-837072],[-1500700,-828050],[-1507309,-825779],[-1510628,-830972],[-1506547,-839148],[-1516876,-842812],[-1528931,-836148],[-1538600,-824082],[-1547268,-822493],[-1542788,-814427],[-1535622,-813555],[-1535356,-808329],[-1524135,-804558],[-1528484,-801188],[-1527542,-793117],[-1533259,-784182],[-1533349,-778060],[-1543983,-768577],[-1545419,-762720],[-1548848,-762517],[-1549970,-757815],[-1556012,-762926],[-1563561,-759780],[-1559369,-758710],[-1552077,-748342],[-1566829,-725943],[-1578313,-730299],[-1581690,-737424],[-1603242,-752063],[-1622512,-750108],[-1626381,-743710],[-1637264,-738034],[-1635755,-726676],[-1620388,-727049],[-1629242,-712632],[-1623416,-703448],[-1615959,-700084],[-1602063,-710870],[-1600323,-701927],[-1593509,-704040],[-1592975,-701299],[-1583297,-698269],[-1584337,-693385],[-1595476,-685081],[-1593381,-683575],[-1569372,-688384],[-1566504,-695827],[-1551633,-701786],[-1559583,-690559],[-1555481,-685937],[-1538150,-684038],[-1523633,-686561],[-1515712,-682553],[-1522833,-674802],[-1533193,-674709],[-1538468,-665418],[-1549859,-657598],[-1550631,-648737],[-1556742,-650179],[-1559604,-638982],[-1567489,-636020],[-1575055,-621003],[-1581535,-624637],[-1580311,-629411],[-1591583,-641265],[-1602259,-642460],[-1605042,-632036],[-1610518,-628268],[-1610763,-640655],[-1618347,-650009],[-1628601,-655226],[-1637881,-648915],[-1640176,-636783],[-1631038,-618204],[-1640339,-620098],[-1642010,-613689],[-1632392,-602374],[-1625712,-606668],[-1627409,-603613],[-1623169,-604104],[-1626038,-597993],[-1615907,-591580],[-1609619,-589863],[-1607223,-593680],[-1600317,-593546],[-1595793,-588241],[-1587098,-588729],[-1580271,-596636],[-1566748,-597484],[-1555226,-609628],[-1538510,-609507],[-1531672,-598686],[-1543322,-582349],[-1541912,-567272],[-1548893,-557322],[-1546035,-553831],[-1555859,-549112],[-1553612,-545933],[-1556711,-541369],[-1552638,-536211],[-1557810,-525861],[-1556499,-517649],[-1560082,-510580],[-1556539,-498369],[-1560573,-490987],[-1560601,-482956],[-1566014,-476838],[-1561489,-466650],[-1563244,-459764],[-1571247,-459324],[-1578932,-447452],[-1585045,-445409],[-1592357,-431791],[-1597627,-429209],[-1600111,-432035],[-1601107,-429015]]]}},
{"type":"Feature","properties":{"GAR_ID":74755,"GAR_Name":"Subarea 48.1","GAR_Short_Label":"481","GAR_Long_Label":"48.1","GAR_Start_Date":"1984-09-13","GAR_Size":658738.58},"geometry":{"type":"Polygon","coordinates":[[[-2120839,1779595],[-2535469,2127511],[-2638365,1998484],[-2703333,1909685],[-2765314,1818776],[-2852535,1678675],[-2906755,1582934],[-2982044,1436077],[-3049920,1285649],[-3110213,1132025],[-2159172,785874],[-2157035,787524],[-2158779,796331],[-2136748,798695],[-2124790,795226],[-2116699,798802],[-2096888,791026],[-2072115,787654],[-2035071,792034],[-2010486,788321],[-2003507,790223],[-1983524,788046],[-1942779,776391],[-1915229,764153],[-1900180,762943],[-1871626,748020],[-1862666,736314],[-1853919,736609],[-1837919,726750],[-1837036,721592],[-1841415,720705],[-1842645,716512],[-1829488,704329],[-1831598,698289],[-1827277,692487],[-1820070,693488],[-1815588,688219],[-1816522,661160],[-1754704,638660],[-1751396,662025],[-1754891,674876],[-1752812,676841],[-1757161,678156],[-1752051,684293],[-1756718,686166],[-1755284,692752],[-1759108,692486],[-1756490,701831],[-1760617,704676],[-1758962,710870],[-1766394,721566],[-1762084,724701],[-1763782,729878],[-1771690,730055],[-1783055,741147],[-1780726,742479],[-1785037,749941],[-1799806,756333],[-1802121,762744],[-1811409,769587],[-1812246,773462],[-1817053,773177],[-1825261,784047],[-1830415,783323],[-1831668,787041],[-1840887,790661],[-1847834,789019],[-1850516,791215],[-1857053,786726],[-1868275,785934],[-1870039,788706],[-1875279,784370],[-1879953,785909],[-1887689,784358],[-1888691,781156],[-1898575,781590],[-1914399,787521],[-1923195,796786],[-1931047,797709],[-1933149,802112],[-1943575,802318],[-1942220,808688],[-1948546,811583],[-1954476,808570],[-1959743,810779],[-1966805,808776],[-1978282,810954],[-1983157,815030],[-1991904,812449],[-1993826,817633],[-2007752,816499],[-2029888,821183],[-2040068,815482],[-2052241,816960],[-2061957,812669],[-2075441,817581],[-2078110,823429],[-2090143,826668],[-2095074,832576],[-2104233,828706],[-2117169,829227],[-2132543,825389],[-2131774,836573],[-2125175,845401],[-2135523,847631],[-2137269,851920],[-2128287,859176],[-2120991,856769],[-2123254,862847],[-2120634,866170],[-2098503,877055],[-2120067,887836],[-2121884,904880],[-2127923,908192],[-2133846,907158],[-2135952,917050],[-2140027,915843],[-2141075,910620],[-2144225,917293],[-2148020,916403],[-2158042,901261],[-2170781,899649],[-2173579,904968],[-2168074,913534],[-2169842,922578],[-2186229,926382],[-2199030,924315],[-2199800,935970],[-2210798,941081],[-2214367,933584],[-2221662,934787],[-2211558,948536],[-2216809,958338],[-2223626,956280],[-2221996,948383],[-2224261,945995],[-2226065,947868],[-2244671,942074],[-2241087,946504],[-2243774,948926],[-2255945,944016],[-2253054,963947],[-2262085,965040],[-2262857,971701],[-2265628,972743],[-2271456,959540],[-2273762,964527],[-2269855,975966],[-2278412,968503],[-2284765,980814],[-2281003,989472],[-2289720,996068],[-2286431,989363],[-2299518,977547],[-2301838,971293],[-2299961,959158],[-2302456,947398],[-2306739,953931],[-2309884,949353],[-2313087,951063],[-2321964,962251],[-2328922,960459],[-2337393,969926],[-2339714,963165],[-2347588,973095],[-2352037,974410],[-2345672,975110],[-2342034,979235],[-2355278,989037],[-2347949,991208],[-2350123,994491],[-2356616,994684],[-2354554,1001011],[-2348517,1001522],[-2332098,992398],[-2328723,993953],[-2319926,985026],[-2319684,988566],[-2313252,990853],[-2323408,1000587],[-2305289,1000275],[-2304592,1004281],[-2320307,1011679],[-2328130,1011019],[-2328906,1017052],[-2335709,1011099],[-2338120,1010818],[-2347279,1020295],[-2347345,1025073],[-2352829,1026296],[-2358733,1022753],[-2359907,1025359],[-2360254,1022001],[-2362831,1025863],[-2375893,1031176],[-2377417,1041080],[-2373548,1050312],[-2363894,1054546],[-2361595,1052557],[-2359938,1056881],[-2350519,1059624],[-2357309,1062392],[-2356559,1067281],[-2364788,1063704],[-2364383,1068950],[-2368604,1067427],[-2371120,1072693],[-2374180,1071516],[-2377642,1076770],[-2380958,1075745],[-2381410,1082676],[-2385308,1079695],[-2391366,1080635],[-2395419,1072610],[-2398191,1073898],[-2398069,1082649],[-2403824,1088722],[-2410183,1086721],[-2408643,1089387],[-2412510,1093934],[-2407200,1098349],[-2403768,1095086],[-2401302,1096498],[-2399038,1101578],[-2403663,1101499],[-2394813,1109319],[-2398162,1113438],[-2412400,1107454],[-2418845,1110639],[-2417986,1119365],[-2412232,1120402],[-2416839,1129844],[-2411223,1135409],[-2409701,1132941],[-2400331,1134619],[-2398299,1140223],[-2402248,1141806],[-2399899,1144508],[-2404041,1145418],[-2402433,1148548],[-2411085,1146118],[-2413207,1148710],[-2413546,1145281],[-2418791,1143896],[-2426900,1147900],[-2429317,1151912],[-2420115,1155986],[-2417178,1160596],[-2425309,1164990],[-2436370,1163115],[-2432178,1171484],[-2425236,1172145],[-2421591,1179171],[-2430867,1177058],[-2428658,1179655],[-2431078,1180723],[-2439341,1177234],[-2440746,1184145],[-2436857,1189637],[-2431422,1187377],[-2423038,1190983],[-2425542,1197265],[-2432001,1194616],[-2430521,1201727],[-2437009,1201797],[-2441420,1193737],[-2450655,1190083],[-2450810,1196163],[-2464671,1195364],[-2462397,1199416],[-2473068,1201179],[-2475331,1205670],[-2473414,1209702],[-2477083,1208160],[-2477139,1214281],[-2480503,1214615],[-2481577,1220601],[-2476803,1219293],[-2478528,1226251],[-2472573,1224569],[-2470335,1230746],[-2463893,1234503],[-2466126,1237895],[-2463756,1242393],[-2453651,1235903],[-2456733,1242339],[-2452459,1244453],[-2455571,1247492],[-2454501,1251700],[-2462483,1252446],[-2463679,1255894],[-2467240,1248996],[-2476868,1247602],[-2474562,1256990],[-2477522,1258883],[-2474198,1259155],[-2471239,1267246],[-2474339,1267526],[-2475266,1272954],[-2480321,1271607],[-2481763,1274340],[-2473499,1278534],[-2466497,1278106],[-2468193,1282739],[-2465052,1288873],[-2467100,1291048],[-2471027,1284916],[-2482485,1281057],[-2480912,1289233],[-2490898,1292284],[-2493277,1294762],[-2490653,1294705],[-2490858,1298289],[-2494045,1296598],[-2494381,1300357],[-2485562,1299186],[-2487289,1302424],[-2484599,1304231],[-2480222,1297443],[-2479010,1302160],[-2475634,1297633],[-2473087,1299137],[-2471046,1303060],[-2477896,1309067],[-2471913,1311979],[-2475118,1313698],[-2474065,1319251],[-2481863,1321059],[-2483835,1325743],[-2480847,1325374],[-2480008,1329883],[-2487814,1331058],[-2486587,1333424],[-2489049,1333941],[-2477257,1334107],[-2472286,1330420],[-2473412,1334019],[-2468065,1332628],[-2467889,1337658],[-2470762,1341942],[-2476654,1338732],[-2480264,1340124],[-2476749,1347131],[-2480072,1349980],[-2483500,1349480],[-2483748,1345197],[-2489785,1346348],[-2488150,1353341],[-2492980,1355908],[-2490367,1357614],[-2491849,1360046],[-2487711,1354409],[-2486027,1358271],[-2483616,1357182],[-2485600,1362974],[-2481463,1369475],[-2486479,1370156],[-2490246,1374777],[-2486317,1381650],[-2490149,1384764],[-2495549,1383176],[-2494462,1388064],[-2500062,1388334],[-2498177,1394251],[-2509360,1389817],[-2512125,1392926],[-2504434,1401770],[-2502237,1400720],[-2509235,1406352],[-2505812,1412579],[-2507730,1430030],[-2494899,1442645],[-2504805,1449243],[-2501232,1454171],[-2509215,1457619],[-2504925,1460451],[-2499232,1455523],[-2489930,1464049],[-2490417,1467131],[-2485560,1468457],[-2488545,1472699],[-2494794,1471267],[-2494009,1479751],[-2500145,1481561],[-2502565,1479101],[-2502006,1491009],[-2495233,1492604],[-2497279,1500388],[-2495021,1503222],[-2507394,1508156],[-2500859,1538766],[-2492923,1547939],[-2496812,1553485],[-2499162,1550500],[-2501508,1553402],[-2494490,1555875],[-2499899,1569655],[-2493034,1600320],[-2481254,1608818],[-2472617,1603500],[-2469506,1604895],[-2468184,1599261],[-2468105,1603272],[-2463276,1604530],[-2461290,1597935],[-2447414,1603816],[-2440422,1596133],[-2447317,1592309],[-2448232,1581675],[-2454982,1583913],[-2456735,1589480],[-2463882,1591541],[-2477145,1578135],[-2468389,1574421],[-2463836,1577223],[-2473276,1562066],[-2469970,1558146],[-2465332,1565194],[-2463074,1562509],[-2466071,1559371],[-2464571,1554454],[-2467580,1550014],[-2464890,1550326],[-2468111,1543093],[-2473227,1541142],[-2470359,1534630],[-2472448,1528842],[-2463926,1517251],[-2466095,1512954],[-2462261,1512891],[-2460419,1509099],[-2462259,1504811],[-2459326,1494966],[-2449110,1489550],[-2447826,1483560],[-2441086,1477961],[-2446814,1470964],[-2451971,1471320],[-2447708,1467107],[-2449752,1460950],[-2439773,1466334],[-2440726,1469395],[-2433772,1476176],[-2429078,1474071],[-2430366,1463704],[-2425007,1462030],[-2421176,1467791],[-2409721,1459002],[-2417432,1453045],[-2426664,1457935],[-2426514,1448076],[-2433932,1442574],[-2445106,1446158],[-2449885,1443705],[-2446110,1430738],[-2440256,1431241],[-2434835,1427007],[-2429801,1428787],[-2425861,1426122],[-2426512,1420430],[-2433735,1417417],[-2444961,1426396],[-2455916,1419468],[-2447431,1412189],[-2449016,1400092],[-2443738,1396979],[-2449568,1395423],[-2450022,1391594],[-2446012,1386721],[-2443337,1389983],[-2439017,1387821],[-2443388,1385233],[-2440715,1380664],[-2441070,1367697],[-2433962,1366128],[-2425837,1344544],[-2421679,1341784],[-2364842,1439595],[-2289261,1556984],[-2207857,1670414],[-2120839,1779595]]]}},
{"type":"Feature","properties":{"GAR_ID":74758,"GAR_Name":"Subarea 48.4","GAR_Short_Label":"484","GAR_Long_Label":"48.4","GAR_Start_Date":"1984-09-13","GAR_Size":944953.11},"geometry":{"type":"Polygon","coordinates":[[[-984093,2703773],[-1495048,4107612],[-1688803,4031822],[-1878732,3946899],[-2003013,3885304],[-2185615,3785596],[-1438647,2491811],[-1318453,2557442],[-1195272,2617280],[-1111629,2653885],[-984093,2703773]]]}},
{"type":"Feature","properties":{"GAR_ID":74756,"GAR_Name":"Subarea 48.2","GAR_Short_Label":"482","GAR_Long_Label":"48.2","GAR_Start_Date":"1984-09-13","GAR_Size":856649.73},"geometry":{"type":"Polygon","coordinates":[[[-1438647,2491811],[-1815716,3144912],[-1970220,3050496],[-2119825,2948497],[-2264160,2839167],[-2357278,2762342],[-2447791,2682464],[-2578458,2557117],[-2662028,2470001],[-2781838,2334239],[-2204136,1849490],[-2141444,1921729],[-2042992,2026083],[-1974520,2092868],[-1867744,2188689],[-1756325,2279067],[-1679603,2336185],[-1561066,2417002],[-1438647,2491811]]]}},
{"type":"Feature","properties":{"GAR_ID":74757,"GAR_Name":"Subarea 48.3","GAR_Short_Label":"483","GAR_Long_Label":"48.3","GAR_Start_Date":"1984-09-13","GAR_Size":1033248.75},"geometry":{"type":"Polygon","coordinates":[[[-1815716,3144912],[-2185615,3785596],[-2371594,3671946],[-2551677,3549167],[-2668236,3462393],[-2837505,3325088],[-2946457,3228937],[-3103744,3078055],[-3253314,2919520],[-3348556,2809772],[-2781838,2334239],[-2662028,2470001],[-2578458,2557117],[-2447791,2682464],[-2357278,2762342],[-2264160,2839167],[-2119825,2948497],[-1970220,3050496],[-1815716,3144912]]]}},
{"type":"Feature","properties":{"GAR_ID":74956,"GAR_Name":"Division 58.4.3a","GAR_Short_Label":"5843a","GAR_Long_Label":"58.4.3a","GAR_Start_Date":"2001-11-01","GAR_Size":505531.76},"geometry":{"type":"Polygon","coordinates":[[[2961482,896004],[3577889,1082500],[3501881,1307641],[3432348,1480570],[3354281,1649818],[3297590,1760397],[3237256,1869030],[2679534,1547029],[2765503,1387514],[2833098,1243688],[2911570,1046882],[2961482,896004]]]}},
{"type":"Feature","properties":{"GAR_ID":74957,"GAR_Name":"Division 58.4.3b","GAR_Short_Label":"5843b","GAR_Long_Label":"58.4.3b","GAR_Start_Date":"2001-11-01","GAR_Size":679900.44},"geometry":{"type":"Polygon","coordinates":[[[2833582,499637],[2858391,329283],[2870286,200710],[3835024,268171],[3812122,497041],[3785984,667571],[3681271,649107],[3657662,771108],[3630011,892256],[3577889,1082500],[2754006,833232],[2792980,691439],[2833582,499637]]]}},
{"type":"Feature","properties":{"GAR_ID":74961,"GAR_Name":"Division 58.5.2","GAR_Short_Label":"5852","GAR_Long_Label":"58.5.2","GAR_Start_Date":"2001-11-01","GAR_Size":643318.78},"geometry":{"type":"Polygon","coordinates":[[[3681271,649107],[4366522,769936],[4329111,957479],[4314848,1019611],[4197034,1150096],[4063237,1283126],[3998477,1360565],[3906661,1442492],[3791794,1524911],[3712329,1571544],[3608685,1797040],[3491360,2015737],[3237256,1869030],[3297590,1760397],[3381239,1593837],[3432348,1480570],[3501881,1307641],[3562709,1131461],[3614679,952469],[3657662,771108],[3681271,649107]]]}},
{"type":"Feature","properties":{"GAR_ID":74759,"GAR_Name":"Subarea 48.5","GAR_Short_Label":"485","GAR_Long_Label":"48.5","GAR_Start_Date":"1984-09-13","GAR_Size":2703077.72},"geometry":{"type":"Polygon","coordinates":[[[-551614,1515548],[-984093,2703773],[-1153595,2635914],[-1277711,2578038],[-1398931,2514322],[-1520676,2442616],[-1640540,2363780],[-1756325,2279067],[-1867744,2188689],[-1974520,2092868],[-2076386,1991845],[-2204136,1849490],[-2120839,1779595],[-2179464,1707293],[-2262763,1595248],[-2364842,1439595],[-2421679,1341784],[-2419784,1336090],[-2426507,1335548],[-2425569,1322739],[-2432132,1324444],[-2442115,1315813],[-2440857,1310196],[-2431634,1304562],[-2428498,1303955],[-2422839,1311607],[-2418808,1310061],[-2418861,1305775],[-2412452,1304290],[-2416135,1295933],[-2424593,1293767],[-2424380,1290166],[-2429696,1285716],[-2426817,1282295],[-2419687,1286060],[-2420074,1268705],[-2407313,1280160],[-2409846,1273524],[-2405802,1273840],[-2404718,1267483],[-2396817,1276175],[-2389786,1275855],[-2387716,1285153],[-2384355,1283254],[-2384618,1274554],[-2388953,1273168],[-2388297,1264997],[-2378993,1261875],[-2375401,1243122],[-2363539,1236516],[-2359130,1240794],[-2351705,1237642],[-2333755,1245249],[-2333964,1256111],[-2338752,1262837],[-2324669,1271817],[-2338672,1276330],[-2341128,1280681],[-2339542,1284057],[-2332321,1285801],[-2323139,1283959],[-2323374,1286775],[-2335027,1293402],[-2322238,1309803],[-2314427,1306941],[-2311200,1302302],[-2315684,1299247],[-2306658,1294241],[-2319865,1291417],[-2316699,1287644],[-2318522,1282667],[-2305772,1284395],[-2298236,1277884],[-2298713,1273790],[-2292509,1271368],[-2296613,1265722],[-2304832,1268019],[-2307649,1272066],[-2318433,1269265],[-2321298,1260663],[-2312043,1255783],[-2318160,1253795],[-2320141,1247110],[-2302415,1241687],[-2297251,1233904],[-2300886,1231908],[-2314318,1236395],[-2322923,1235730],[-2327370,1239255],[-2329423,1233459],[-2336379,1230332],[-2339763,1220676],[-2335910,1213500],[-2339916,1206965],[-2333225,1201329],[-2322303,1205244],[-2312846,1203132],[-2313390,1193644],[-2308480,1190049],[-2302076,1197200],[-2295916,1192224],[-2294410,1198095],[-2290582,1194010],[-2289659,1185724],[-2300208,1183281],[-2318883,1188008],[-2338085,1183768],[-2347435,1185760],[-2367591,1165169],[-2362879,1166015],[-2362531,1163314],[-2356923,1167055],[-2357946,1161600],[-2353929,1164382],[-2353673,1159283],[-2349566,1165123],[-2342744,1165247],[-2350016,1152830],[-2348063,1150825],[-2342518,1154930],[-2344157,1149169],[-2340287,1145038],[-2335205,1148359],[-2327698,1145672],[-2330290,1139466],[-2335494,1138802],[-2335919,1136010],[-2330536,1133251],[-2329967,1129095],[-2325249,1127969],[-2319858,1135505],[-2310158,1138223],[-2297361,1133988],[-2300725,1116709],[-2314436,1113373],[-2307949,1107369],[-2312039,1102326],[-2326789,1107695],[-2321661,1103117],[-2322377,1095411],[-2306748,1091178],[-2311264,1083447],[-2307423,1076978],[-2298173,1078926],[-2296538,1084307],[-2291054,1083381],[-2290504,1066725],[-2280328,1075007],[-2275116,1072811],[-2277464,1065789],[-2281099,1065193],[-2276702,1059830],[-2281552,1055667],[-2276104,1051809],[-2278134,1046528],[-2288374,1048704],[-2290081,1046209],[-2282924,1039308],[-2273646,1036563],[-2273674,1029793],[-2267324,1028631],[-2259161,1033864],[-2255700,1031782],[-2251354,1034489],[-2247708,1030781],[-2249407,1021647],[-2237267,1018391],[-2236666,1010106],[-2218685,1019855],[-2216630,1010862],[-2218990,1006390],[-2214297,1002145],[-2215967,998991],[-2209560,994811],[-2204866,1011581],[-2199522,1013297],[-2208560,1033509],[-2202743,1028005],[-2200309,1035898],[-2191747,1031418],[-2189429,1022725],[-2194124,1016636],[-2189827,997788],[-2185112,995963],[-2180015,999327],[-2178114,1011837],[-2171963,1013828],[-2162972,992457],[-2158254,994827],[-2154488,992232],[-2139923,1007172],[-2140036,1013309],[-2126174,1013659],[-2123019,1019132],[-2129484,1019872],[-2113719,1026325],[-2114548,1030080],[-2123864,1027632],[-2118337,1031937],[-2119865,1034200],[-2137208,1027075],[-2132794,1033342],[-2142425,1032882],[-2138774,1036796],[-2142905,1038961],[-2145695,1046921],[-2142633,1071738],[-2130029,1092227],[-2123675,1085511],[-2132372,1081396],[-2135657,1076129],[-2129604,1063627],[-2134354,1056600],[-2132544,1051066],[-2127069,1044836],[-2122560,1046696],[-2124554,1043093],[-2122401,1041914],[-2114390,1046139],[-2107444,1055043],[-2095573,1058685],[-2105780,1048807],[-2094297,1050043],[-2093894,1044645],[-2089824,1046815],[-2092793,1035242],[-2098536,1032252],[-2096847,1026136],[-2093220,1025591],[-2081418,1037052],[-2078437,1044296],[-2074045,1042978],[-2069078,1034278],[-2063732,1037699],[-2065257,1044099],[-2042618,1039879],[-2039503,1040843],[-2039222,1049452],[-2031567,1051748],[-2022303,1049282],[-2017301,1054205],[-1996870,1044535],[-1986716,1031528],[-1974942,1036636],[-1968696,1032595],[-1954546,1039100],[-1938314,1036600],[-1933111,1025384],[-1938045,1028049],[-1947433,1018696],[-1940247,1017612],[-1939597,1012243],[-1930673,1007747],[-1922527,1016360],[-1910189,1006984],[-1911474,1018020],[-1906938,1017567],[-1909538,1022431],[-1904343,1035151],[-1894044,1034606],[-1895886,1024225],[-1888625,1019362],[-1886871,1010798],[-1893688,1001454],[-1888731,1001010],[-1888871,998073],[-1884614,1001808],[-1875154,994581],[-1868589,999037],[-1873564,1009536],[-1870933,1017521],[-1865576,1021950],[-1854884,1016428],[-1851860,1010731],[-1846087,1016414],[-1841386,1011701],[-1831416,1016480],[-1825287,1015368],[-1823269,1012582],[-1829863,1002527],[-1819606,1008193],[-1810938,1005503],[-1823328,995220],[-1808235,995949],[-1807969,989180],[-1812572,982430],[-1805307,975797],[-1808030,971738],[-1801061,968730],[-1805291,956921],[-1803126,953580],[-1800279,953736],[-1790459,968549],[-1798349,990482],[-1787376,992498],[-1783958,988397],[-1777742,994171],[-1768297,988843],[-1769339,985024],[-1779131,981694],[-1764595,974928],[-1774893,959264],[-1781841,927838],[-1767350,935823],[-1763481,922951],[-1758796,925134],[-1760974,930383],[-1756845,936893],[-1758474,946414],[-1750888,954901],[-1737216,956757],[-1747220,961476],[-1743949,969829],[-1745458,980516],[-1734034,974069],[-1734197,957613],[-1731092,964090],[-1723337,967344],[-1712824,962936],[-1718638,955541],[-1715671,951002],[-1709950,958950],[-1702656,957493],[-1705714,943873],[-1718835,933961],[-1710554,934361],[-1707547,928621],[-1703691,934089],[-1690649,930186],[-1694412,925260],[-1692085,922873],[-1685638,925931],[-1680715,922756],[-1676660,924498],[-1684051,932657],[-1683793,942836],[-1679752,949093],[-1663709,941681],[-1656439,933238],[-1656953,929654],[-1653235,930843],[-1643301,919922],[-1648506,931332],[-1637615,933665],[-1651249,949640],[-1646856,952951],[-1635077,947702],[-1623458,935613],[-1613379,931980],[-1610611,925760],[-1612259,917548],[-1617590,916407],[-1623930,920282],[-1629143,918333],[-1611122,904210],[-1613467,900692],[-1627576,907049],[-1619696,899334],[-1621563,896217],[-1639097,898137],[-1660337,882495],[-1657614,878776],[-1638067,884980],[-1635806,884241],[-1643263,879609],[-1635521,879621],[-1632947,876814],[-1631403,881059],[-1624701,881301],[-1633021,872520],[-1631306,869530],[-1620640,873552],[-1613374,868833],[-1610226,871070],[-1618709,876901],[-1593334,891997],[-1584633,874539],[-1581768,876615],[-1583678,887192],[-1561249,866169],[-1565455,858802],[-1576385,858930],[-1575384,853279],[-1579478,850940],[-1577832,844874],[-1568739,848356],[-1565986,837930],[-1563963,848710],[-1557522,849275],[-1550384,858020],[-1542767,849646],[-1539645,839251],[-1544219,835327],[-1538845,830502],[-1530665,834982],[-1531137,855920],[-1525952,859105],[-1521587,854988],[-1518587,850461],[-1519609,842083],[-1512665,841793],[-1508834,836227],[-1509410,824906],[-1514721,818740],[-1518020,819473],[-1528803,809069],[-1535352,808840],[-1537803,805385],[-1494080,801442],[-1481376,784524],[-1480846,773153],[-1484872,770889],[-1503693,779328],[-1522877,773617],[-1524741,767977],[-1520891,764974],[-1498499,761729],[-1499431,755715],[-1508672,751185],[-1502971,746758],[-1504016,732295],[-1501735,729729],[-1498482,729443],[-1493864,736718],[-1491317,749679],[-1474755,750284],[-1475528,739938],[-1480141,737197],[-1478177,731969],[-1482032,717565],[-1474759,705237],[-1467742,706415],[-1466914,720692],[-1457949,735380],[-1453492,738101],[-1449110,730393],[-1436495,692529],[-1434359,668307],[-1437225,661730],[-1432070,656497],[-1433671,653248],[-1426267,627107],[-1427006,592527],[-1431671,583226],[-1430001,573413],[-1421787,576068],[-1420754,558007],[-1427646,532025],[-1423804,526022],[-1423738,514600],[-1419068,511731],[-1415273,521593],[-1414967,512899],[-1410713,513470],[-1409064,517443],[-1409846,512707],[-1404006,507215],[-1399058,514395],[-1397982,504196],[-1393520,508604],[-1397152,500977],[-1396739,492941],[-1392154,493857],[-1400737,462136],[-1413565,447568],[-1418693,437630],[-1414918,433652],[-1420197,429855],[-1428580,411317],[-1423576,414017],[-1421825,411947],[-1448400,380972],[-1443868,379866],[-1444555,376105],[-1453158,370387],[-1446319,371741],[-1442040,368665],[-1442615,365537],[-1457732,355638],[-1453280,352904],[-1458465,348468],[-1453090,345278],[-1450630,339296],[-1496939,333188],[-1512254,323888],[-1515376,316323],[-1509553,309158],[-1499284,308916],[-1493750,312296],[-1488297,310415],[-1473542,320715],[-1454257,321919],[-1443706,319244],[-1411669,330023],[-1407662,329764],[-1408582,324966],[-1392451,333858],[-1370845,339190],[-1359430,334090],[-1359440,338628],[-1365896,341800],[-1352835,349319],[-1357574,353740],[-1351399,367980],[-1326701,405868],[-1321386,410870],[-1308198,405088],[-1280309,379875],[-1282768,379572],[-1272535,357393],[-1273472,343514],[-1267954,339413],[-1277341,337664],[-1287568,329993],[-1301952,311423],[-1314767,287566],[-1312351,283027],[-1315345,274489],[-1328398,258118],[-1338178,234412],[-1354146,221296],[-1348762,221903],[-1342601,218048],[-1338015,208270],[-1341023,201630],[-1338825,197039],[-1322109,212449],[-1271440,273887],[-1256156,281599],[-1235771,277012],[-1226456,265466],[-1221213,246957],[-1220599,228055],[-1227880,206938],[-1254761,181337],[-1294866,161160],[-1298189,158349],[-1296171,154918],[-1306771,149530],[-1303283,147568],[-1274556,158314],[-1270421,155708],[-1271304,151807],[-1280619,153150],[-1292897,143790],[-1282219,137711],[-1275200,137794],[-1234683,149857],[-1230129,160710],[-1222044,158765],[-1206826,175025],[-1202052,172732],[-1202202,176624],[-1188420,180122],[-1189600,185301],[-1181178,180540],[-1169860,179994],[-1150071,186708],[-1146731,191522],[-1149408,194055],[-1176002,196253],[-1182416,205321],[-1170266,258512],[-1163898,271323],[-1157316,276293],[-1138730,281671],[-1125583,280571],[-1106917,272633],[-1092376,260495],[-1087736,247264],[-1087211,229640],[-1100214,205152],[-1098687,200798],[-1084352,208478],[-1072446,223263],[-1072635,232163],[-1069399,232973],[-1073002,261302],[-1054125,259746],[-1045886,264575],[-1024471,266757],[-1017448,259741],[-1010663,257892],[-1003767,259334],[-993861,267378],[-992840,264453],[-996348,262831],[-991532,252178],[-984242,253484],[-982587,257771],[-985008,261206],[-982198,260084],[-977074,264709],[-982024,268435],[-986871,280979],[-968874,292502],[-962065,301502],[-984796,311856],[-980884,312795],[-984631,326640],[-981930,327061],[-992308,339258],[-988277,341388],[-988673,344363],[-980216,348790],[-963461,343075],[-958052,342731],[-954027,346670],[-945910,344375],[-934774,355660],[-936513,361371],[-933304,364388],[-922819,364585],[-858059,396047],[-849490,410958],[-844178,413036],[-841503,427951],[-833442,437560],[-821868,435104],[-819428,427804],[-825965,415802],[-834178,418083],[-832647,405396],[-840848,411845],[-835415,402800],[-837375,396010],[-844161,400907],[-843149,396045],[-834660,385395],[-826465,386896],[-828067,395788],[-821739,408877],[-813306,405008],[-814330,386988],[-819863,377530],[-826495,373629],[-822432,361772],[-814507,368825],[-802540,356833],[-796281,352611],[-789367,352836],[-785737,348243],[-780821,352499],[-782628,361685],[-768624,356876],[-769707,367130],[-763041,365507],[-770360,379028],[-763684,383409],[-770879,391564],[-767479,389771],[-765503,401139],[-760005,401773],[-763125,407730],[-760885,414593],[-763674,428069],[-759154,426224],[-759772,430984],[-747745,412183],[-748342,405241],[-742215,393341],[-742206,381163],[-704714,373212],[-690583,367687],[-688152,362452],[-689286,368485],[-683327,369545],[-692974,378426],[-689742,380024],[-691904,382773],[-671911,371795],[-652478,348887],[-652012,353916],[-648172,353241],[-628992,368966],[-630768,380296],[-667950,421328],[-677155,436872],[-681547,451577],[-696170,472449],[-685377,476952],[-699622,489227],[-698206,491646],[-701916,494963],[-698891,499037],[-700106,505351],[-702631,504605],[-703525,511876],[-707749,509973],[-702893,514424],[-704002,526226],[-695918,529826],[-697799,542649],[-693688,556706],[-694651,567435],[-690191,566912],[-682661,583094],[-681783,593710],[-675551,600704],[-664069,607875],[-657846,606997],[-656639,599676],[-650172,600151],[-654195,607653],[-651342,623976],[-631330,609980],[-621337,595015],[-616755,581527],[-606287,575448],[-599315,577045],[-603906,586942],[-596716,583359],[-598061,602649],[-589835,609919],[-601379,641976],[-609469,647355],[-618872,660066],[-622788,686054],[-627024,690928],[-625525,696781],[-638199,713980],[-645814,741374],[-643630,745772],[-639731,745252],[-637661,751880],[-640209,774868],[-635937,791282],[-638745,794300],[-631248,792257],[-614498,797374],[-612180,793600],[-602592,791369],[-604246,801285],[-602689,805522],[-598716,806078],[-601542,812858],[-596064,819684],[-600005,832080],[-596401,845952],[-605516,849500],[-604738,856815],[-589995,858543],[-583327,864870],[-577043,874191],[-576531,882139],[-584722,883844],[-573373,886722],[-565272,906225],[-541039,914069],[-558512,918185],[-561487,925883],[-556139,932824],[-543894,936167],[-544995,939142],[-539165,943381],[-544859,953555],[-520935,974982],[-488380,988151],[-489842,990058],[-484894,993542],[-492025,999288],[-513482,994045],[-533803,981522],[-538581,981557],[-557409,960177],[-570830,965949],[-573376,963204],[-579856,966092],[-581667,962727],[-592089,960372],[-604281,962474],[-602278,972926],[-612009,974713],[-613471,978835],[-606427,989319],[-599711,990748],[-594496,998281],[-589569,1040238],[-591878,1041439],[-592341,1033372],[-598587,1038027],[-608030,1029029],[-610050,1036583],[-605008,1049715],[-606895,1052230],[-610609,1049857],[-615328,1055317],[-618032,1046267],[-621281,1047358],[-624708,1034701],[-628855,1032991],[-646700,1008356],[-666914,999840],[-678726,1000128],[-681683,1004978],[-696321,1007463],[-731209,1001984],[-738854,1003868],[-754574,1018490],[-765787,1044776],[-772051,1066400],[-768396,1073377],[-773621,1078567],[-783341,1105249],[-778229,1112632],[-769542,1113338],[-767198,1119029],[-773829,1119156],[-783307,1127795],[-788100,1152136],[-783575,1163923],[-784965,1176766],[-776958,1185970],[-774388,1206347],[-770629,1209799],[-761001,1210126],[-756804,1215990],[-762652,1234600],[-745906,1266267],[-749964,1277584],[-747274,1282137],[-748443,1288387],[-739329,1299927],[-741504,1309850],[-734016,1331702],[-723507,1341611],[-717611,1353192],[-711910,1355565],[-713854,1358691],[-710109,1360642],[-705878,1370646],[-699612,1373180],[-697291,1378639],[-693600,1378062],[-695570,1389761],[-691200,1393518],[-685566,1409935],[-677403,1419369],[-667048,1424565],[-647846,1448021],[-616063,1468486],[-613502,1476173],[-607102,1475750],[-605635,1479995],[-598575,1474927],[-599050,1477934],[-592607,1477618],[-584906,1484477],[-580363,1482033],[-574756,1484632],[-572972,1493708],[-568357,1499449],[-564982,1499377],[-571151,1505006],[-564317,1515610],[-551614,1515548]]]}},
{"type":"Feature","properties":{"GAR_ID":74760,"GAR_Name":"Subarea 48.6","GAR_Short_Label":"486","GAR_Long_Label":"48.6","GAR_Start_Date":"1984-09-13","GAR_Size":6446800.69},"geometry":{"type":"Polygon","coordinates":[[[1093794,1894507],[2185615,3785596],[2054809,3858161],[1854137,3958512],[1648581,4048435],[1438682,4127692],[1224992,4196074],[1008075,4253402],[788502,4299524],[640930,4323986],[418219,4351177],[194407,4366904],[-29918,4371127],[-179461,4367544],[-403326,4352582],[-626129,4326154],[-847282,4288328],[-1066203,4239205],[-1282315,4178913],[-1495048,4107612],[-551614,1515548],[-544235,1514926],[-542383,1521150],[-535559,1518286],[-530949,1521735],[-532489,1526530],[-515591,1533128],[-514567,1539140],[-517870,1544050],[-531842,1554643],[-526548,1572816],[-532812,1586977],[-527331,1588324],[-533380,1591022],[-524734,1594045],[-528641,1600036],[-521158,1608369],[-521423,1616936],[-527853,1627501],[-519528,1636318],[-524993,1660658],[-499956,1674582],[-479280,1674741],[-472892,1669523],[-473960,1672854],[-468342,1673305],[-470054,1675655],[-463106,1685197],[-462551,1691110],[-466223,1696522],[-472164,1696236],[-473576,1702638],[-458654,1706431],[-458080,1721988],[-446031,1736361],[-448072,1742329],[-461858,1739760],[-480787,1722438],[-492289,1716640],[-511130,1720353],[-510758,1722930],[-506195,1721341],[-491920,1736052],[-502267,1740068],[-513647,1737336],[-520161,1742894],[-523524,1764365],[-521672,1772750],[-511571,1786069],[-514513,1794565],[-513166,1804524],[-504420,1815318],[-498458,1813758],[-493417,1820321],[-485955,1823280],[-476608,1822843],[-467528,1814578],[-465675,1819823],[-462970,1817873],[-462355,1821072],[-454231,1821134],[-452708,1826087],[-456355,1826367],[-456940,1829988],[-455103,1838145],[-478636,1861828],[-468461,1864144],[-458725,1859294],[-451415,1859913],[-445587,1854516],[-436128,1862206],[-429554,1875866],[-434908,1889791],[-430528,1886661],[-426781,1889957],[-427527,1887128],[-424205,1886999],[-417399,1894927],[-387695,1913952],[-384296,1920233],[-385251,1928007],[-389467,1929293],[-383714,1946053],[-388795,1950167],[-380221,1968621],[-381465,1979722],[-383581,1979117],[-383124,1991421],[-387669,1992492],[-403022,1986839],[-429573,1995406],[-442731,2016430],[-442793,2026807],[-424237,2039212],[-420696,2038199],[-422147,2031585],[-417349,2024122],[-405486,2024794],[-392525,2011721],[-383439,2011035],[-377811,2019260],[-384644,2029040],[-384382,2037086],[-367223,2059101],[-363974,2067908],[-383256,2076741],[-375353,2086834],[-367545,2088483],[-366207,2078094],[-361737,2071009],[-344864,2072040],[-328585,2063232],[-324673,2056510],[-327297,2041352],[-323108,2038419],[-315721,2040086],[-310980,2024292],[-307422,2022871],[-309453,2009349],[-296875,2012512],[-290233,2028084],[-286598,2018758],[-274627,2019599],[-269728,2026044],[-278740,2038582],[-278167,2054644],[-274227,2063385],[-275752,2078079],[-290222,2093666],[-292563,2109463],[-276942,2117853],[-245316,2106696],[-240998,2126163],[-228384,2133758],[-219493,2133717],[-211976,2129720],[-206135,2117392],[-209650,2112843],[-210324,2097796],[-222015,2087516],[-219602,2076886],[-229074,2064983],[-222928,2058405],[-188935,2067077],[-173490,2065657],[-157180,2069620],[-151647,2066052],[-149628,2068726],[-142745,2066350],[-147775,2071969],[-143608,2074870],[-133778,2065308],[-133217,2056984],[-127791,2054538],[-123035,2059664],[-123639,2065157],[-120021,2060007],[-120209,2075690],[-108087,2070290],[-109085,2077501],[-98495,2077948],[-98078,2080939],[-89948,2069242],[-79990,2068283],[-76505,2057301],[-73174,2058647],[-71195,2066521],[-67967,2061165],[-63220,2065164],[-55596,2063792],[-53425,2059728],[-47131,2067809],[-48817,2073796],[-44383,2082391],[-41346,2083035],[-35033,2078999],[-28556,2068029],[-34475,2037172],[-26596,2041117],[-21514,2036383],[-19971,2027197],[-24103,2017065],[9586,2074095],[33253,2090980],[50322,2098462],[55319,2104688],[74683,2112674],[76192,2116435],[86071,2117600],[85529,2119833],[97572,2122872],[97584,2125331],[114151,2122189],[114178,2124479],[117839,2122971],[117478,2125626],[121666,2122996],[136107,2124580],[151564,2132068],[157923,2129437],[161741,2134346],[164798,2132874],[164405,2136944],[173111,2135202],[185495,2137604],[188118,2143569],[199919,2140541],[204493,2142615],[209523,2139330],[214983,2143553],[216096,2140942],[222854,2143162],[233359,2138969],[233125,2142677],[238230,2140562],[245716,2144178],[254132,2140931],[256105,2147433],[259986,2142987],[263119,2148382],[268320,2143029],[274080,2147386],[276935,2143903],[279121,2146786],[283768,2143503],[286147,2149544],[289967,2146075],[283059,2164358],[282939,2177966],[288519,2182961],[301448,2183090],[302878,2180803],[297053,2151247],[311525,2144139],[313987,2146920],[325729,2146859],[337628,2154869],[346955,2152279],[349060,2160343],[340624,2168917],[340828,2176315],[349573,2184868],[356853,2184225],[368632,2161097],[366366,2152913],[370193,2152438],[380716,2135864],[388247,2133523],[396671,2117651],[408671,2106060],[414530,2104311],[416233,2098550],[422325,2098790],[438607,2089808],[450085,2098612],[452595,2104297],[450992,2111204],[459592,2122816],[457902,2129400],[462215,2129447],[463424,2132841],[466043,2130169],[473787,2130784],[482059,2135448],[477935,2140653],[479939,2141906],[486319,2138442],[495981,2140495],[494735,2146362],[477526,2155671],[476125,2160998],[481010,2162639],[490027,2158572],[496703,2160804],[501183,2156074],[505033,2133251],[514080,2128748],[522202,2119525],[533633,2120038],[536339,2117625],[537648,2121929],[542184,2120096],[546191,2122673],[557918,2112913],[566107,2116044],[576742,2108044],[588841,2108741],[596356,2101081],[603826,2115064],[627148,2116637],[630293,2108926],[622677,2089113],[616087,2082978],[627833,2080829],[631250,2074273],[639212,2073531],[641718,2070180],[642400,2074486],[660941,2064456],[670475,2055287],[679937,2052343],[682691,2055416],[688315,2054382],[684860,2075351],[704938,2077044],[712816,2084292],[717843,2081691],[725068,2070978],[720072,2071956],[720268,2057358],[697078,2035959],[693981,2025660],[693798,2021361],[697196,2021642],[696807,2008480],[700019,2007251],[704842,2010932],[703427,2000338],[716986,1997471],[719836,2005116],[725503,1998086],[738763,1994088],[750354,1997331],[753353,1989195],[755749,1990852],[761875,1986284],[766060,1987186],[777889,1999171],[775966,2004610],[785872,2018017],[793686,2019472],[807093,2037654],[813455,2040382],[830272,1997177],[827627,1992119],[821584,1990989],[799650,1997510],[802716,1991050],[816309,1983843],[812065,1976675],[824995,1971713],[828236,1963416],[843916,1957409],[860299,1973450],[862091,1979418],[867923,1980973],[876043,1993179],[888356,1988254],[894179,1969734],[891180,1959546],[881682,1956944],[884389,1943360],[886954,1942806],[885770,1936877],[890905,1925703],[895313,1925765],[897257,1917176],[910966,1905420],[912814,1908731],[914339,1902836],[925570,1892560],[932259,1893196],[942913,1887530],[948228,1894302],[954088,1887722],[954078,1894658],[959112,1888235],[958183,1896662],[965099,1880967],[969259,1878348],[971810,1883111],[971065,1894661],[979373,1891379],[980203,1895646],[982220,1892118],[983453,1896245],[987913,1891427],[989705,1898000],[1007163,1890092],[1010641,1889542],[1011026,1892153],[1016005,1887349],[1017506,1890405],[1027361,1886023],[1031137,1890155],[1048615,1887610],[1056514,1893188],[1064177,1892524],[1071305,1896568],[1082419,1894189],[1087959,1897912],[1093794,1894507]]]}},
{"type":"Feature","properties":{"GAR_ID":74761,"GAR_Name":"Division 58.4.1","GAR_Short_Label":"5841","GAR_Long_Label":"58.4.1","GAR_Start_Date":"2001-11-01","GAR_Size":4640106.71},"geometry":{"type":"Polygon","coordinates":[[[1196387,-2072204],[1922195,-3329339],[2091206,-3225862],[2254662,-3113813],[2360329,-3034497],[2463209,-2951597],[2612037,-2820743],[2753923,-2682393],[2888492,-2536915],[2973962,-2436160],[3055919,-2332528],[3172057,-2171953],[3244818,-2061669],[3313747,-1948951],[3409776,-1775599],[3468777,-1657381],[3549576,-1476428],[3598214,-1353582],[3663185,-1166363],[3701101,-1039796],[3734646,-912002],[3776681,-718339],[3799134,-588137],[3824394,-391581],[3835591,-259932],[3843890,-61933],[3843748,70190],[3835024,268171],[2870286,200710],[2858391,329283],[2833582,499637],[2403316,423770],[2415005,407734],[2414990,400439],[2422247,394022],[2422440,387269],[2430035,375233],[2439644,366959],[2439185,360799],[2444451,358046],[2444699,352470],[2450406,349630],[2449312,347226],[2453619,345903],[2451165,342517],[2455839,340080],[2448478,331569],[2464561,318808],[2465224,311096],[2461773,308367],[2465040,297784],[2469920,294528],[2469361,282137],[2484991,289167],[2492549,277364],[2498135,276881],[2498495,280648],[2511279,253212],[2521798,251318],[2527747,246059],[2525224,240528],[2532940,223764],[2531636,218610],[2526133,219789],[2524032,215814],[2521980,192284],[2539819,174804],[2539231,166292],[2544251,154434],[2539294,146630],[2543034,145871],[2543127,141544],[2549793,135755],[2553081,137459],[2555079,127828],[2557553,123735],[2559921,125058],[2560909,112751],[2566960,107806],[2565926,102681],[2579794,98163],[2571268,90121],[2572873,80356],[2566821,78672],[2565510,75167],[2574145,56497],[2570709,50536],[2572480,37047],[2564847,20489],[2573659,8058],[2575316,-3505],[2571917,-10226],[2574977,-13983],[2571347,-17794],[2579085,-22020],[2582048,-33327],[2596932,-49078],[2591335,-64875],[2597155,-70554],[2603664,-89822],[2602160,-99779],[2588843,-110587],[2587038,-124997],[2595685,-136451],[2591551,-143616],[2591762,-159860],[2584684,-169386],[2574997,-167346],[2579690,-173275],[2572624,-180902],[2579154,-185665],[2584337,-200088],[2592414,-205663],[2595647,-213325],[2591826,-221144],[2590155,-239930],[2576928,-246430],[2573191,-253662],[2577733,-257818],[2574377,-260761],[2575191,-268853],[2582434,-275814],[2577084,-279823],[2579771,-290702],[2574932,-297498],[2586847,-322440],[2572239,-338520],[2575343,-346507],[2568856,-345478],[2566830,-346398],[2570372,-347964],[2563828,-348640],[2573799,-354174],[2571848,-358343],[2582617,-372263],[2583373,-384515],[2574186,-393648],[2564331,-388460],[2571685,-400387],[2573471,-409706],[2570046,-409595],[2562887,-398993],[2556005,-394879],[2551137,-397429],[2540712,-392237],[2530204,-393526],[2549992,-401880],[2552296,-405609],[2545588,-408623],[2548460,-412652],[2542312,-414256],[2543143,-416235],[2563922,-429891],[2563227,-431827],[2556854,-428097],[2560574,-432225],[2553099,-431744],[2567082,-448504],[2565172,-456632],[2566106,-459074],[2570106,-457728],[2568248,-460161],[2572469,-464536],[2564817,-467908],[2567209,-473061],[2559843,-474451],[2565209,-477804],[2572535,-476807],[2571110,-495590],[2574841,-497320],[2577601,-484201],[2583525,-476501],[2587516,-480911],[2585705,-483697],[2585338,-486764],[2587911,-484268],[2592747,-490785],[2589781,-488115],[2589111,-493043],[2588419,-487830],[2583795,-492785],[2589052,-496193],[2583819,-500307],[2583734,-504906],[2587491,-502212],[2586703,-506851],[2588658,-505880],[2593409,-517242],[2596414,-514573],[2597403,-517823],[2600278,-511676],[2598442,-519761],[2601477,-533275],[2611413,-528397],[2611358,-533339],[2607060,-537510],[2608894,-538977],[2602997,-566448],[2609960,-584763],[2609184,-589798],[2590669,-620283],[2583949,-625038],[2584761,-633247],[2579150,-634067],[2584384,-637773],[2582510,-642177],[2571746,-654639],[2566996,-655395],[2568223,-661103],[2558265,-667398],[2556285,-677771],[2513669,-733879],[2507020,-734663],[2509082,-738205],[2506317,-746764],[2498011,-749587],[2493936,-767952],[2486517,-777346],[2479111,-780743],[2475849,-793121],[2465528,-795194],[2458602,-786672],[2445554,-780315],[2463587,-807947],[2446088,-808793],[2438081,-820198],[2422593,-820910],[2415321,-826039],[2420586,-828849],[2415935,-832746],[2425008,-832949],[2417528,-844113],[2420117,-844420],[2422162,-851773],[2420799,-859004],[2429474,-862433],[2430316,-865834],[2438277,-866617],[2442918,-877628],[2432664,-889408],[2432264,-897889],[2435191,-897305],[2436846,-905929],[2441983,-908203],[2438275,-911343],[2444961,-915939],[2437469,-917872],[2438555,-923139],[2445899,-925408],[2451417,-920345],[2453624,-921943],[2455266,-917850],[2458925,-918473],[2458413,-922332],[2461829,-920183],[2461588,-924043],[2465070,-923054],[2464683,-928136],[2473297,-935633],[2479138,-948450],[2480056,-976793],[2475329,-991917],[2476124,-1003061],[2467953,-1058629],[2458148,-1058638],[2442725,-1073071],[2436533,-1072742],[2418337,-1082951],[2413773,-1082330],[2412135,-1086042],[2403303,-1085434],[2400878,-1088805],[2394945,-1087941],[2389854,-1080277],[2375554,-1081123],[2373185,-1071425],[2367994,-1090140],[2341077,-1121714],[2316962,-1118966],[2306731,-1103364],[2304344,-1092482],[2308457,-1068394],[2308027,-1026368],[2300217,-1015874],[2296699,-1018885],[2289416,-1002076],[2285402,-1002619],[2280244,-1017001],[2284749,-1031157],[2283828,-1047344],[2278341,-1052549],[2275440,-1071019],[2277529,-1073257],[2280373,-1071297],[2282450,-1077049],[2278684,-1078643],[2278595,-1083513],[2271493,-1080131],[2277321,-1101194],[2273872,-1103423],[2277055,-1112604],[2272248,-1117353],[2279153,-1122383],[2270992,-1123047],[2273519,-1125375],[2270687,-1134540],[2280221,-1155863],[2277100,-1158092],[2268531,-1150868],[2264486,-1140806],[2257804,-1151818],[2259944,-1156826],[2252170,-1170422],[2253707,-1175117],[2242660,-1178173],[2248946,-1186032],[2245775,-1187978],[2239730,-1212883],[2233005,-1200490],[2228281,-1198418],[2227732,-1205280],[2223974,-1205159],[2224116,-1211411],[2219422,-1213484],[2221254,-1216338],[2216020,-1221830],[2216079,-1234567],[2211242,-1240868],[2209673,-1255920],[2211817,-1260550],[2209201,-1262268],[2210131,-1276496],[2205825,-1294899],[2200593,-1293849],[2199758,-1289906],[2202615,-1266113],[2200875,-1251459],[2209815,-1211956],[2202180,-1214295],[2200590,-1210679],[2199436,-1213781],[2193096,-1208549],[2191394,-1210161],[2192219,-1225868],[2186745,-1233596],[2183185,-1259849],[2175843,-1279004],[2174252,-1302095],[2172760,-1308165],[2169271,-1308906],[2169136,-1321355],[2164323,-1332428],[2165329,-1342081],[2171802,-1351688],[2171694,-1365429],[2167140,-1372721],[2164758,-1398119],[2148926,-1424988],[2153147,-1436375],[2151465,-1452260],[2145147,-1459702],[2132761,-1458332],[2130196,-1454638],[2129357,-1459538],[2118139,-1464582],[2119564,-1471717],[2116529,-1488625],[2114586,-1487679],[2130875,-1512854],[2125478,-1525257],[2126928,-1539973],[2118361,-1544087],[2109683,-1538951],[2101041,-1543862],[2101919,-1546506],[2097638,-1545357],[2108723,-1556700],[2103034,-1558414],[2096645,-1555071],[2097603,-1560123],[2091933,-1559272],[2093370,-1562675],[2088994,-1565766],[2086014,-1557479],[2079552,-1552047],[2080563,-1547086],[2067840,-1548243],[2070684,-1541799],[2063923,-1535635],[2058660,-1535251],[2053717,-1545596],[2047551,-1546090],[2041891,-1538864],[2038439,-1539825],[2022280,-1528140],[2032433,-1541020],[2032702,-1547145],[2030279,-1549198],[2019693,-1545402],[2008864,-1566188],[1995162,-1569597],[1995428,-1574988],[1992215,-1577112],[1983869,-1577930],[1980836,-1587121],[1985983,-1593149],[1983530,-1596679],[1967139,-1597210],[1968028,-1606243],[1974569,-1612925],[1973384,-1621760],[1983888,-1629696],[1987085,-1643497],[1995913,-1644231],[1999705,-1658731],[2005001,-1667945],[2008603,-1669023],[2010719,-1684668],[2007616,-1686285],[2011806,-1692298],[2002015,-1708347],[2003313,-1725275],[1991737,-1727020],[1986001,-1736350],[1977283,-1739442],[1977880,-1743698],[1962695,-1754734],[1951352,-1783154],[1950115,-1784770],[1944892,-1778753],[1945899,-1784783],[1935302,-1792799],[1934310,-1809125],[1930146,-1817713],[1911366,-1833096],[1899143,-1831127],[1890747,-1835424],[1879383,-1832467],[1876982,-1837179],[1878905,-1841537],[1874446,-1840932],[1870653,-1819450],[1866989,-1816866],[1861590,-1832510],[1861969,-1844716],[1856235,-1848951],[1851949,-1862366],[1855449,-1866605],[1853683,-1873432],[1861630,-1884277],[1854876,-1886633],[1845622,-1878644],[1843045,-1878988],[1843603,-1882765],[1838003,-1880839],[1825608,-1900053],[1808691,-1894917],[1797026,-1897753],[1786225,-1892565],[1794529,-1900505],[1797423,-1908010],[1791952,-1916860],[1773200,-1931242],[1763999,-1935212],[1755125,-1933260],[1753331,-1936724],[1738663,-1939773],[1728014,-1930876],[1729360,-1942188],[1724845,-1948933],[1713851,-1951334],[1696055,-1967249],[1687730,-1971654],[1682139,-1969188],[1676265,-1975677],[1664492,-1977270],[1659377,-1969941],[1655629,-1980199],[1646862,-1985563],[1641092,-1983501],[1643976,-1986597],[1640934,-1992375],[1632176,-1994475],[1625805,-2001548],[1604018,-2001014],[1601071,-2017282],[1589759,-2024757],[1577648,-2027784],[1563153,-2020471],[1551544,-2020633],[1546749,-2027282],[1539930,-2030372],[1527845,-2063922],[1515181,-2067798],[1506628,-2065609],[1503947,-2062334],[1505922,-2058992],[1497345,-2055778],[1497333,-2048190],[1492107,-2057091],[1485875,-2052730],[1489639,-2063407],[1486800,-2072463],[1479457,-2075410],[1468270,-2071200],[1464781,-2062319],[1476886,-2057137],[1466150,-2056484],[1461793,-2045600],[1463892,-2027363],[1452331,-2012710],[1450426,-2018480],[1451189,-1988275],[1450055,-1984411],[1443502,-1987661],[1442536,-1979979],[1435850,-1986740],[1429110,-1985383],[1430992,-2013736],[1425978,-2012544],[1419537,-2020802],[1421681,-2047358],[1415023,-2053726],[1405601,-2044114],[1393147,-2039332],[1400169,-2054113],[1397554,-2057898],[1381744,-2062922],[1375858,-2056677],[1377048,-2049026],[1362384,-2044140],[1366692,-2058946],[1360709,-2057646],[1355739,-2047305],[1356694,-2039396],[1351524,-2035609],[1350525,-2044956],[1346788,-2038587],[1345631,-2047627],[1339906,-2050788],[1336366,-2046452],[1336473,-2022414],[1329484,-2021729],[1324902,-2044892],[1319097,-2035501],[1322099,-2025278],[1319486,-2016616],[1311494,-2021330],[1307900,-2018158],[1307158,-2021621],[1304554,-2015366],[1297475,-2014536],[1284734,-2030036],[1276191,-2032950],[1267536,-2028806],[1258697,-2038831],[1255303,-2033368],[1251342,-2035140],[1247794,-2041067],[1244930,-2040309],[1245623,-2047203],[1235787,-2046599],[1231366,-2050056],[1229716,-2057929],[1223015,-2054192],[1223837,-2060414],[1220780,-2065352],[1212077,-2062219],[1200930,-2063382],[1200977,-2068394],[1211438,-2072044],[1209808,-2075509],[1202950,-2071736],[1196387,-2072204]]]}},
{"type":"Feature","properties":{"GAR_ID":74955,"GAR_Name":"Division 58.4.2","GAR_Short_Label":"5842","GAR_Long_Label":"58.4.2","GAR_Start_Date":"2001-11-01","GAR_Size":1585062.37},"geometry":{"type":"Polygon","coordinates":[[[2833582,499637],[2792980,691439],[2754006,833232],[2961482,896004],[2911570,1046882],[2833098,1243688],[2741340,1434661],[2664061,1573525],[2550127,1752157],[2456797,1880784],[2322321,2044511],[2176955,2198651],[2061193,2307528],[1898439,2443181],[1726783,2567377],[1547029,2679534],[1093794,1894507],[1104972,1892516],[1104590,1889613],[1111690,1889177],[1111490,1886155],[1116756,1886550],[1121025,1882489],[1130929,1885292],[1134247,1880111],[1145582,1874005],[1188180,1871021],[1192847,1867575],[1201518,1867208],[1211793,1874435],[1212390,1879682],[1232087,1896985],[1240317,1909450],[1246135,1923398],[1248506,1957420],[1258032,1973431],[1268532,1979121],[1294723,1981158],[1316223,1968590],[1332315,1952551],[1328200,1941101],[1315056,1943652],[1311961,1939637],[1299378,1935435],[1290000,1936908],[1299239,1916533],[1309642,1911789],[1311445,1914821],[1321226,1915138],[1318582,1908148],[1323364,1900179],[1325616,1879929],[1309816,1862849],[1311106,1854719],[1301144,1853063],[1296680,1847478],[1297730,1841248],[1302676,1836019],[1309522,1839101],[1314603,1834550],[1320416,1834901],[1323649,1828106],[1331246,1828592],[1333456,1820440],[1337954,1818703],[1344164,1827243],[1346450,1818734],[1353342,1811152],[1348873,1807336],[1351764,1797001],[1346729,1789948],[1345963,1781975],[1348133,1786131],[1356674,1783796],[1357329,1788394],[1364805,1792885],[1368015,1783831],[1372779,1783128],[1373554,1789515],[1381995,1784710],[1377988,1776303],[1388138,1774563],[1391473,1762991],[1378183,1762130],[1380651,1758335],[1377217,1748619],[1378943,1746067],[1372776,1743019],[1378980,1743403],[1380419,1740791],[1375548,1718473],[1383633,1708961],[1389714,1708052],[1388158,1726311],[1391809,1732556],[1405458,1734465],[1409727,1730881],[1420536,1745609],[1428408,1746249],[1433343,1742470],[1432628,1746230],[1435816,1746688],[1437010,1737441],[1440245,1735801],[1442797,1740394],[1446840,1736209],[1449134,1746474],[1453733,1748725],[1450214,1755597],[1451801,1759830],[1454666,1762177],[1455828,1759003],[1456682,1762490],[1457470,1758479],[1453350,1756138],[1457105,1754542],[1457930,1756858],[1459173,1753336],[1463539,1758282],[1467956,1755938],[1464848,1762082],[1467770,1764415],[1467963,1771204],[1473526,1767159],[1475939,1775910],[1480455,1775821],[1486427,1791305],[1508095,1802908],[1509727,1798844],[1521477,1795616],[1533533,1796446],[1540870,1787094],[1543777,1788646],[1546162,1785823],[1555397,1789598],[1557956,1787942],[1559431,1793651],[1574135,1786388],[1577741,1790474],[1585823,1784388],[1589421,1786702],[1601990,1782912],[1604875,1775956],[1610155,1774146],[1612386,1776928],[1622645,1769578],[1622631,1776034],[1629490,1780234],[1638649,1779812],[1643682,1783832],[1653628,1776960],[1655232,1780512],[1668080,1775371],[1672861,1771463],[1671011,1767667],[1674914,1768180],[1687891,1755691],[1696106,1756021],[1695385,1759658],[1699174,1758476],[1713615,1741200],[1714627,1745506],[1718071,1746066],[1722613,1733546],[1726174,1749293],[1734749,1751692],[1744691,1749027],[1749138,1741624],[1762868,1736782],[1762847,1723417],[1767915,1722160],[1770507,1726319],[1776820,1727097],[1789258,1714887],[1789739,1716949],[1791318,1714013],[1786137,1705654],[1788161,1701211],[1800606,1713727],[1800013,1721650],[1806903,1725839],[1806560,1730794],[1811664,1736413],[1828384,1734994],[1832605,1727849],[1841209,1722738],[1842423,1718747],[1836507,1715130],[1844789,1703049],[1846134,1694615],[1837381,1694323],[1827305,1700574],[1818835,1698990],[1836513,1686202],[1831464,1682075],[1838740,1684316],[1841484,1681777],[1834544,1679408],[1839855,1670604],[1846613,1668400],[1843231,1665606],[1830596,1674814],[1830786,1667761],[1822857,1666597],[1826453,1663154],[1841668,1660872],[1842672,1654825],[1847267,1652606],[1846796,1645789],[1845000,1646829],[1843097,1645675],[1848310,1639788],[1829080,1635326],[1818517,1624147],[1817761,1619508],[1821120,1616529],[1856396,1628054],[1861160,1616500],[1866791,1615733],[1862540,1627253],[1863080,1641168],[1872667,1652969],[1878868,1652843],[1899281,1641236],[1909153,1642138],[1913134,1648075],[1918394,1642200],[1919467,1649263],[1911479,1656218],[1916656,1657866],[1916016,1661678],[1900385,1664059],[1894108,1675701],[1894711,1685805],[1906109,1694114],[1923142,1689629],[1938046,1677960],[1943838,1679598],[1946943,1677301],[1938587,1664758],[1930214,1667248],[1932871,1666041],[1929545,1663650],[1944803,1645722],[1945209,1639459],[1940259,1634709],[1920391,1629995],[1930178,1628248],[1931720,1625158],[1939719,1628776],[1944971,1625228],[1946345,1628687],[1949220,1625420],[1951195,1606885],[1957461,1599183],[1959386,1603504],[1961001,1600037],[1963260,1602407],[1968822,1597753],[1978539,1601575],[1979412,1605302],[1969324,1620589],[1968277,1627122],[1976792,1629746],[1982468,1623764],[1981618,1629490],[1985636,1630736],[1985733,1627228],[1995409,1624516],[1996296,1626615],[1987719,1631829],[1986613,1639103],[1980831,1646720],[1996311,1663887],[2009557,1669397],[2021230,1671205],[2029503,1668801],[2046826,1654462],[2054450,1653400],[2057775,1644853],[2064158,1648826],[2071330,1648133],[2103200,1632419],[2125481,1606339],[2160414,1580940],[2161332,1570849],[2170502,1561317],[2190898,1522220],[2190318,1506286],[2193060,1500810],[2180795,1475519],[2182885,1467544],[2179872,1461449],[2175000,1465447],[2171970,1453537],[2180062,1458027],[2173538,1444526],[2178973,1447130],[2184621,1442107],[2188540,1433016],[2189132,1418721],[2186098,1405373],[2179117,1398714],[2174517,1406334],[2175215,1397102],[2171656,1395777],[2164565,1404584],[2163496,1411701],[2158973,1414499],[2158731,1424245],[2163071,1429865],[2155487,1427137],[2153687,1450361],[2151898,1444449],[2145963,1441870],[2148563,1427526],[2141582,1422508],[2143167,1422906],[2147118,1417204],[2141243,1422122],[2137816,1415901],[2134434,1416774],[2131891,1423828],[2129001,1418373],[2122330,1425582],[2124076,1419012],[2119806,1411605],[2090590,1422548],[2081551,1422282],[2083760,1416057],[2099862,1408542],[2083236,1401929],[2076568,1393104],[2099961,1399678],[2120198,1398133],[2129396,1392196],[2130616,1388145],[2133300,1388940],[2139216,1370195],[2142373,1375121],[2153935,1367546],[2155343,1347859],[2152075,1344068],[2156972,1340747],[2139262,1335470],[2153601,1333720],[2161129,1337017],[2157351,1332649],[2158698,1326583],[2154056,1324495],[2165307,1315671],[2163122,1312741],[2166495,1313219],[2167752,1307355],[2158636,1294567],[2153364,1317737],[2148890,1319963],[2150998,1315220],[2146405,1305375],[2149424,1303523],[2149752,1296234],[2147751,1282505],[2145596,1279405],[2142487,1280481],[2147301,1276743],[2142061,1259801],[2148645,1265283],[2154147,1260731],[2164491,1266888],[2172448,1247949],[2177552,1244957],[2177426,1229874],[2183644,1226871],[2182724,1222509],[2185713,1220662],[2182069,1218274],[2186295,1218076],[2184489,1215240],[2188210,1210938],[2184457,1208314],[2187368,1203436],[2179591,1202623],[2183588,1199345],[2179786,1194308],[2180808,1192273],[2186107,1194594],[2186943,1187917],[2193947,1182564],[2193537,1174674],[2198285,1171977],[2200226,1162466],[2198025,1154593],[2200578,1153889],[2196125,1148292],[2200389,1150435],[2199934,1140168],[2203916,1136780],[2203083,1134005],[2211497,1133442],[2222960,1127261],[2236052,1107978],[2242109,1078285],[2239980,1062717],[2244275,1043316],[2251287,1029963],[2247555,1026635],[2251965,1028183],[2253600,1023939],[2255927,997441],[2259319,993411],[2263291,974048],[2272739,961029],[2271666,946020],[2279567,923393],[2279154,905048],[2284368,899365],[2290906,882087],[2299896,874979],[2309865,873978],[2314158,865970],[2311074,856576],[2274999,845456],[2256002,820963],[2245145,813629],[2231652,817608],[2228701,827286],[2227210,823843],[2224106,826163],[2223354,822549],[2212766,821309],[2201415,830631],[2195299,831091],[2191675,828281],[2202249,809441],[2199782,806868],[2197217,809876],[2192449,808336],[2184506,812748],[2170377,829585],[2167508,826175],[2170896,805011],[2164233,796100],[2154113,795466],[2148997,799151],[2149222,810365],[2142058,810295],[2143369,825476],[2138291,825372],[2138007,827817],[2132706,827665],[2127752,821334],[2122516,825543],[2118654,824785],[2118197,798755],[2109580,798307],[2102941,808644],[2098580,804603],[2098731,797244],[2096205,795599],[2072298,799400],[2064929,810144],[2069597,819427],[2080332,828881],[2066399,838436],[2062670,835278],[2056913,836627],[2050387,847403],[2026349,836685],[2028141,828831],[2016978,827914],[2019818,820433],[2015589,819644],[2013249,814871],[2015432,812704],[2012494,810516],[2016550,812191],[2014356,809746],[2018931,808805],[2021340,804422],[2003139,799251],[1997562,800573],[1978784,791085],[1985125,782651],[2002214,778239],[2012486,782826],[2024162,783070],[2024017,790205],[2033558,793138],[2041049,788427],[2045931,779097],[2030886,768474],[1985044,755749],[1973438,755705],[1948809,765001],[1944471,759907],[1932496,764485],[1926065,772004],[1920467,768836],[1914291,773555],[1891287,778101],[1884539,774384],[1889650,772922],[1893389,767360],[1887770,764226],[1871548,770933],[1871031,765886],[1865804,766029],[1865852,762902],[1857735,763691],[1854818,767355],[1840653,766175],[1838984,761692],[1830164,763715],[1821668,757455],[1779425,752897],[1742244,739803],[1723747,739427],[1717570,735005],[1715716,728604],[1709835,726134],[1710758,718054],[1719775,715756],[1725644,708995],[1731377,708449],[1738420,702731],[1762818,708102],[1773393,715596],[1772075,717676],[1777517,717709],[1784058,723689],[1813170,716775],[1814712,706166],[1822942,704680],[1822149,702324],[1828830,697585],[1828223,693991],[1844934,699987],[1846727,695415],[1842938,687937],[1850147,680718],[1857841,678640],[1859220,683655],[1869955,688089],[1876500,677486],[1876368,672245],[1882240,667160],[1894930,670052],[1903338,676875],[1908645,665236],[1914861,662005],[1919945,664065],[1918031,659163],[1933176,661913],[1934203,651876],[1938489,647359],[1950247,665533],[1969027,667511],[1976488,662552],[1978862,668841],[1999329,668162],[2005589,672253],[2010276,664598],[2022932,670415],[2036451,670009],[2044320,662645],[2039655,653066],[2045554,655910],[2044619,651501],[2055709,647877],[2062580,648627],[2064170,653289],[2075505,658008],[2076189,652485],[2070910,647664],[2082932,646043],[2087533,647811],[2091937,656375],[2102514,660727],[2106548,656566],[2119143,655493],[2125327,649105],[2136406,649749],[2138420,644631],[2153981,639283],[2150044,632053],[2158719,629979],[2167083,617740],[2166094,611231],[2146628,599440],[2151413,594576],[2149201,592498],[2162145,590271],[2156078,584956],[2162761,582162],[2154926,573225],[2168395,571292],[2168152,567341],[2156434,560676],[2163477,557971],[2163083,554703],[2171229,557325],[2172254,554882],[2175677,558626],[2176816,555955],[2177181,561423],[2181747,561763],[2183974,559023],[2179708,556288],[2188532,554417],[2195180,559753],[2195532,556345],[2200234,554576],[2201443,557928],[2202288,553178],[2210037,551912],[2214727,547284],[2215647,553277],[2219425,551213],[2221356,547971],[2217134,545532],[2220669,546462],[2222154,540847],[2224047,543382],[2226401,539149],[2215314,535877],[2231113,532376],[2233115,527506],[2241021,530255],[2232588,522445],[2241888,526170],[2240587,518167],[2249290,519694],[2251160,509171],[2256200,506975],[2256004,502893],[2251896,501829],[2257399,499440],[2265492,487969],[2266712,490734],[2277756,489047],[2281237,483034],[2282573,487881],[2288738,485129],[2288181,490741],[2296073,490238],[2294853,492202],[2295828,492723],[2306728,484951],[2309066,487488],[2314323,480256],[2315140,472505],[2319458,470578],[2321615,471590],[2319097,483651],[2321306,489897],[2316995,491575],[2316493,496710],[2320982,496730],[2318754,495796],[2318807,495482],[2325829,484400],[2321528,496134],[2332060,493266],[2329996,490660],[2331716,486595],[2336500,485526],[2338663,474276],[2340342,477678],[2337469,480651],[2337175,487053],[2338742,488482],[2334239,492608],[2337012,492949],[2344237,486581],[2341174,485498],[2341305,486919],[2340636,488913],[2340162,488841],[2339945,484658],[2345461,484567],[2344226,481279],[2337750,483649],[2340647,482089],[2339446,482152],[2339123,480378],[2345022,480817],[2348273,476721],[2360749,473460],[2379103,460216],[2403316,423770],[2833582,499637]]]}},
{"type":"Feature","properties":{"GAR_ID":74963,"GAR_Name":"Subarea 88.1","GAR_Short_Label":"881","GAR_Long_Label":"88.1","GAR_Start_Date":"1985-09-12","GAR_Size":3046141.51},"geometry":{"type":"Polygon","coordinates":[[[1196387,-2072204],[1188920,-2074505],[1186973,-2078496],[1176474,-2079313],[1169899,-2086169],[1172529,-2090124],[1171432,-2097030],[1165019,-2101501],[1159085,-2099216],[1154264,-2092565],[1145805,-2066063],[1134821,-2058590],[1138461,-2068047],[1135454,-2070522],[1133532,-2066190],[1129771,-2065961],[1129771,-2071562],[1122699,-2070412],[1128130,-2081234],[1115213,-2091579],[1105685,-2089244],[1107115,-2092800],[1095015,-2094591],[1091478,-2099836],[1084432,-2095470],[1062880,-2094223],[1063704,-2097668],[1056233,-2095000],[1062810,-2104272],[1046478,-2107807],[1042977,-2115021],[1039394,-2115874],[1056062,-2135977],[1051518,-2143656],[1059717,-2145000],[1066306,-2154033],[1066719,-2161509],[1061119,-2164712],[1037428,-2158771],[1032588,-2151121],[1032103,-2156772],[1019194,-2154929],[1011660,-2146310],[1021179,-2138998],[1013336,-2134420],[1012189,-2123676],[1005587,-2138448],[988596,-2124554],[986297,-2129135],[978063,-2129101],[970697,-2118443],[972623,-2115654],[966474,-2113513],[958103,-2113961],[967078,-2126411],[961077,-2130948],[948414,-2126090],[945861,-2119324],[941332,-2118468],[940186,-2122283],[922053,-2114780],[917291,-2124651],[907215,-2124706],[903061,-2133214],[898727,-2130722],[898620,-2133059],[883784,-2117074],[879707,-2108189],[874006,-2105626],[872931,-2116721],[881381,-2126800],[880936,-2131736],[877227,-2135311],[868376,-2135760],[870922,-2140999],[867846,-2143506],[862013,-2140728],[853553,-2142653],[847107,-2138715],[842874,-2130717],[836429,-2134455],[834353,-2140503],[829285,-2141461],[814108,-2125930],[808283,-2136261],[800023,-2133216],[797526,-2127014],[791067,-2124190],[780064,-2121709],[778833,-2126819],[775324,-2125775],[753610,-2111332],[754306,-2106103],[760148,-2105369],[758900,-2096225],[755152,-2092890],[740362,-2089713],[736934,-2082253],[728353,-2087005],[710713,-2065362],[709087,-2069622],[705291,-2060449],[697253,-2055179],[697089,-2048730],[694542,-2049970],[690414,-2037945],[682204,-2034813],[683231,-2024246],[686737,-2023418],[680177,-2016999],[681259,-2014170],[676091,-2011207],[670897,-2015485],[658053,-1993219],[648363,-1991187],[643233,-1986688],[629692,-1987708],[640327,-2002937],[641935,-2010039],[635378,-2007503],[658324,-2035781],[672223,-2071458],[671130,-2075912],[666621,-2077582],[665219,-2086909],[656132,-2091836],[649742,-2089790],[649151,-2083473],[644327,-2080635],[646177,-2076788],[639093,-2074555],[634858,-2068857],[626783,-2068131],[623855,-2060116],[614249,-2052864],[615339,-2061204],[606048,-2059339],[602205,-2066447],[593992,-2057580],[588693,-2060135],[585876,-2069986],[595069,-2079637],[591629,-2085241],[586604,-2086340],[572160,-2080599],[571364,-2083256],[566836,-2080975],[556253,-2087453],[543433,-2088435],[527337,-2082649],[526216,-2075959],[512652,-2093860],[494432,-2095626],[489324,-2092031],[489460,-2087121],[494731,-2088753],[508198,-2081563],[496381,-2079595],[492460,-2071600],[488855,-2081202],[485745,-2078504],[476887,-2083828],[465046,-2083553],[464495,-2087504],[453653,-2085025],[444301,-2071047],[459012,-2066988],[474836,-2056641],[473204,-2054791],[465609,-2055619],[455662,-2062017],[442517,-2063223],[432223,-2052392],[441097,-2049639],[439889,-2044389],[436233,-2042868],[424928,-2047991],[408657,-2046834],[404806,-2039590],[398197,-2038900],[397519,-2033590],[390787,-2036326],[387525,-2029629],[384892,-2030318],[385849,-2033410],[384676,-2034072],[382384,-2025075],[379350,-2028880],[379599,-2023579],[375433,-2026466],[376635,-2017705],[364787,-2023762],[358918,-2016482],[359837,-2011323],[352606,-2004861],[350652,-2010365],[344367,-2007631],[344512,-2027791],[353685,-2049060],[348812,-2046701],[328831,-2012871],[328933,-2006230],[316387,-1994033],[326987,-1976855],[335239,-1983937],[343755,-1981070],[339300,-1974063],[341391,-1968322],[345229,-1968465],[342637,-1960977],[344373,-1950681],[348047,-1961981],[351636,-1962452],[349681,-1958062],[355408,-1956104],[351199,-1948276],[353433,-1945052],[341627,-1939093],[344069,-1928862],[352085,-1926265],[346202,-1921765],[350502,-1918450],[347548,-1916458],[340360,-1924323],[338176,-1922401],[337283,-1932790],[332583,-1938616],[328548,-1926448],[327792,-1905925],[331978,-1905550],[340495,-1912241],[350765,-1910028],[358297,-1917995],[361113,-1914112],[367592,-1912781],[383025,-1923442],[395616,-1919988],[374879,-1902129],[369059,-1900728],[359902,-1904255],[354438,-1895256],[350046,-1893893],[347165,-1897311],[336214,-1892218],[341525,-1864362],[339318,-1852410],[352214,-1845991],[350073,-1843416],[353101,-1839259],[350268,-1839504],[348020,-1827674],[357819,-1830090],[361134,-1836589],[359292,-1846231],[367729,-1842279],[366910,-1848106],[370134,-1846511],[378217,-1853326],[376842,-1835470],[380130,-1834164],[383428,-1837155],[384404,-1834700],[387670,-1838235],[391246,-1833797],[394480,-1836486],[396813,-1832150],[402416,-1835280],[403885,-1831579],[413271,-1828028],[420045,-1829493],[429006,-1844137],[429928,-1841856],[438549,-1842282],[431017,-1832476],[428945,-1821325],[430988,-1820944],[423797,-1815401],[414265,-1816809],[406957,-1812767],[386771,-1810707],[389813,-1807886],[397052,-1809433],[391015,-1799785],[394199,-1798739],[403454,-1804552],[407180,-1801623],[406738,-1794544],[399024,-1791042],[402971,-1787683],[412482,-1793444],[410003,-1781025],[413504,-1782613],[415928,-1778180],[421340,-1789900],[421822,-1785570],[424415,-1786144],[424126,-1775033],[428732,-1777615],[427014,-1773391],[438295,-1783906],[435220,-1775071],[447346,-1774204],[445938,-1768700],[435674,-1766820],[432592,-1763414],[434437,-1760472],[429188,-1759749],[429232,-1756872],[433381,-1756040],[430837,-1749134],[435276,-1750869],[436215,-1745377],[448711,-1745981],[444601,-1740212],[439797,-1739677],[443707,-1734217],[458359,-1735694],[463884,-1758794],[468240,-1763766],[472266,-1762999],[474792,-1747835],[471387,-1747563],[471588,-1742864],[475114,-1741144],[462064,-1723949],[461692,-1726514],[448631,-1721301],[455330,-1714639],[468394,-1723119],[473689,-1724003],[474057,-1721250],[462676,-1710804],[458309,-1693517],[451799,-1693392],[446876,-1680157],[439679,-1672040],[432761,-1670620],[430139,-1654200],[440994,-1665278],[447727,-1660231],[447634,-1656836],[458955,-1659478],[460065,-1654757],[465356,-1656391],[464657,-1646362],[470414,-1645345],[468975,-1638017],[466529,-1639415],[465079,-1635271],[469194,-1629445],[465032,-1626709],[465956,-1615394],[467001,-1622805],[472730,-1623725],[477401,-1631899],[472106,-1646936],[481411,-1643525],[486131,-1659652],[491149,-1657700],[492728,-1670903],[497604,-1669412],[495969,-1666090],[504381,-1657771],[500293,-1657504],[492878,-1642236],[495775,-1639638],[490272,-1633458],[493725,-1634042],[496842,-1628769],[502563,-1638658],[506197,-1638173],[504320,-1623558],[508322,-1619890],[504277,-1609342],[504841,-1606524],[509494,-1610597],[511311,-1608377],[502859,-1598191],[494545,-1596146],[497710,-1590649],[494547,-1584577],[497781,-1578787],[492534,-1577444],[491718,-1570586],[499985,-1561911],[517218,-1565819],[519625,-1561284],[518070,-1555979],[534012,-1549950],[537074,-1544928],[535142,-1538272],[540849,-1536091],[531220,-1533118],[528512,-1538410],[531072,-1542182],[525232,-1541494],[511026,-1548046],[495618,-1549694],[495056,-1545721],[490326,-1543022],[486193,-1549708],[483516,-1544312],[484791,-1536247],[488961,-1531941],[486809,-1520291],[477762,-1527987],[475861,-1535198],[470403,-1537122],[470723,-1522012],[479002,-1518364],[477725,-1514045],[467988,-1513103],[464463,-1509404],[465458,-1502018],[472547,-1496993],[463897,-1491734],[460158,-1480673],[463978,-1478652],[471742,-1481355],[469772,-1474433],[465673,-1472214],[473124,-1462746],[470840,-1458498],[461325,-1464088],[453352,-1463927],[451372,-1447943],[446236,-1446669],[443973,-1437961],[445337,-1431471],[449523,-1431478],[449403,-1420095],[453509,-1415491],[449481,-1415641],[445817,-1422832],[433336,-1415639],[430956,-1407110],[431413,-1400239],[439423,-1402288],[442747,-1406744],[441686,-1403090],[445500,-1404444],[446484,-1399961],[444280,-1402119],[440453,-1398202],[443945,-1394869],[436454,-1391507],[447677,-1381604],[444225,-1378841],[439250,-1381713],[438412,-1378134],[432489,-1382365],[430471,-1379903],[417775,-1382707],[416707,-1375627],[413824,-1375980],[411587,-1374694],[414294,-1372735],[400186,-1357168],[398740,-1349736],[390186,-1345606],[391592,-1342363],[387895,-1339584],[388717,-1333700],[393509,-1329076],[387901,-1326131],[387039,-1321896],[396021,-1314204],[407818,-1295951],[400140,-1298123],[388538,-1312797],[372294,-1323566],[364410,-1316697],[356949,-1287777],[360492,-1284408],[357057,-1279771],[360220,-1271476],[367754,-1262171],[366717,-1256650],[361809,-1258333],[359836,-1263249],[343179,-1255181],[343822,-1258759],[336421,-1266167],[335464,-1273174],[338551,-1276078],[335530,-1294032],[329144,-1283936],[332706,-1271698],[321050,-1264082],[321288,-1255849],[309637,-1248028],[287333,-1249077],[279494,-1233918],[281001,-1227368],[288919,-1224279],[295714,-1225980],[302279,-1234298],[310129,-1238086],[319609,-1234789],[319581,-1230861],[325376,-1226829],[343112,-1226038],[342717,-1217793],[348158,-1207037],[354717,-1208364],[355835,-1199161],[358149,-1203057],[365690,-1201005],[364835,-1179122],[368096,-1175174],[375518,-1186723],[394170,-1201395],[399814,-1212094],[405689,-1213928],[406942,-1206199],[396277,-1185131],[392126,-1183706],[375563,-1159215],[386836,-1159637],[393219,-1167934],[396556,-1163423],[396193,-1154573],[404135,-1153558],[401436,-1148868],[405466,-1137804],[399377,-1123680],[393928,-1123494],[392352,-1115571],[390015,-1113228],[384517,-1115004],[381488,-1110410],[391845,-1108827],[394247,-1093772],[405607,-1094275],[397429,-1082134],[380716,-1093435],[387569,-1074403],[398174,-1062820],[393990,-1063088],[392761,-1052200],[386671,-1051843],[379760,-1065385],[368611,-1056963],[361778,-1069230],[358585,-1065214],[362885,-1056054],[366439,-1055339],[374171,-1036462],[394752,-1012246],[399570,-993404],[394762,-989899],[353034,-1012994],[344153,-999682],[352822,-1003008],[350387,-994246],[357494,-987239],[361809,-990109],[362489,-984618],[359853,-979727],[351693,-978167],[344803,-989181],[337107,-988474],[332885,-971572],[344273,-967473],[350491,-960396],[339164,-960919],[332060,-957460],[333208,-946948],[331925,-941168],[325660,-936835],[330196,-934630],[323309,-928079],[325906,-925220],[318225,-926906],[316469,-924752],[320442,-921219],[331145,-922289],[338454,-927329],[340089,-921875],[332237,-912105],[324692,-912920],[323244,-904322],[315951,-911355],[311127,-909882],[312164,-901809],[303564,-906121],[301241,-900828],[306100,-894123],[305869,-887857],[300817,-893429],[297219,-892627],[297601,-888451],[288722,-889483],[289716,-886602],[281355,-886205],[280529,-881664],[275000,-877986],[276895,-867649],[270590,-868809],[269108,-874247],[264343,-868023],[265435,-864285],[269312,-864140],[269323,-859770],[262671,-860277],[264442,-857946],[259301,-857842],[255754,-849200],[245126,-843390],[247039,-840287],[241521,-835269],[246583,-828487],[253330,-829038],[262709,-837121],[273526,-837652],[270807,-830891],[264302,-829444],[262845,-822351],[276233,-807460],[280632,-797411],[289030,-792495],[280463,-790514],[277707,-792543],[269139,-787534],[267715,-791805],[260996,-793262],[253254,-801417],[247383,-800366],[242411,-794384],[237815,-795499],[244219,-809633],[230902,-816077],[226580,-824932],[220300,-819996],[218416,-821622],[208313,-810773],[208481,-799537],[195980,-797666],[189676,-792160],[189092,-786105],[182785,-787448],[176683,-783290],[175636,-772531],[171577,-768031],[173391,-765906],[169432,-764321],[166531,-756854],[162231,-768749],[154366,-764970],[147305,-749536],[151711,-741234],[151752,-732601],[155424,-731047],[154047,-725652],[148060,-727126],[145644,-723454],[137299,-730810],[126410,-725802],[122598,-716500],[117423,-724931],[108603,-723667],[104854,-718725],[109493,-711766],[98801,-705239],[98419,-695470],[88982,-702182],[80999,-693521],[76475,-692669],[79674,-681565],[76957,-678099],[72800,-682442],[69204,-679514],[61100,-685987],[54066,-678294],[54833,-673868],[41769,-672843],[20642,-653883],[16620,-655767],[16914,-650157],[6880,-647423],[2846,-632073],[-1348,-629262],[-18008,-636503],[-24765,-622968],[-33387,-627767],[-43119,-624483],[-37912,-620002],[-43550,-608204],[-51378,-613187],[-52003,-621345],[-58520,-620031],[-68761,-617567],[-104987,-595410],[-574744,-3259536],[-418998,-3283191],[-262303,-3299409],[-105014,-3308153],[0,-3309820],[111786,-3307931],[279187,-3298024],[445871,-3279650],[556384,-3262720],[666262,-3242067],[829615,-3204161],[937359,-3174313],[1096932,-3122762],[1201775,-3083933],[1356431,-3019106],[1507606,-2946529],[1654910,-2866388],[1196387,-2072204]]]}},
{"type":"Feature","properties":{"GAR_ID":84540,"GAR_Name":"Division 58.4.4a","GAR_Short_Label":"5844a","GAR_Long_Label":"58.4.4a","GAR_Start_Date":"1995-11-02","GAR_Size":1081605.35},"geometry":{"type":"Polygon","coordinates":[[[2110143,2262851],[2981171,3196915],[2809772,3348556],[2616893,3501359],[2497144,3587745],[2374547,3670037],[2185615,3785596],[1547029,2679534],[1682571,2596566],[1856328,2475327],[1980977,2376748],[2110143,2262851]]]}},
{"type":"Feature","properties":{"GAR_ID":92561,"GAR_Name":"Subarea 58.7","GAR_Short_Label":"587","GAR_Long_Label":"58.7","GAR_Start_Date":"2016-11-30","GAR_Size":586148.56},"geometry":{"type":"Polygon","coordinates":[[[3036511,3144399],[3396417,3517093],[3308257,3600143],[3184778,3709822],[3057665,3815269],[2927063,3916363],[2793122,4012987],[2655993,4105033],[2444667,4234288],[2185615,3785596],[2374547,3670037],[2497144,3587745],[2616893,3501359],[2733655,3410979],[2847298,3316706],[3036511,3144399]]]}},
{"type":"Feature","properties":{"GAR_ID":92560,"GAR_Name":"Subarea 58.6","GAR_Short_Label":"586","GAR_Long_Label":"58.6","GAR_Start_Date":"2016-11-30","GAR_Size":669888.99},"geometry":{"type":"Polygon","coordinates":[[[3785596,2185615],[4234288,2444667],[4149306,2586282],[4059589,2724946],[3965240,2860500],[3866367,2992791],[3763083,3121667],[3655504,3246981],[3543755,3368590],[3396417,3517093],[3036511,3144399],[3168235,3011632],[3268143,2902910],[3364322,2790875],[3456662,2675656],[3545058,2557383],[3629409,2436193],[3709619,2312223],[3785596,2185615]]]}},
{"type":"Feature","properties":{"GAR_ID":74960,"GAR_Name":"Division 58.5.1","GAR_Short_Label":"5851","GAR_Long_Label":"58.5.1","GAR_Start_Date":"1987-11-05","GAR_Size":1090146.81},"geometry":{"type":"Polygon","coordinates":[[[4366522,769936],[4815055,849024],[4784174,1008599],[4727953,1245817],[4659977,1479937],[4608211,1634009],[4521034,1861678],[4456657,2010920],[4350881,2230567],[4234288,2444667],[3491360,2015737],[3608685,1797040],[3712329,1571544],[3791794,1524911],[3906661,1442492],[3998477,1360565],[4063237,1283126],[4197034,1150096],[4314848,1019611],[4366522,769936]]]}},
{"type":"Feature","properties":{"GAR_ID":84541,"GAR_Name":"Division 58.4.4b","GAR_Short_Label":"5844b","GAR_Long_Label":"58.4.4b","GAR_Start_Date":"1995-11-02","GAR_Size":1414398.1},"geometry":{"type":"Polygon","coordinates":[[[2679534,1547029],[3785596,2185615],[3670037,2374547],[3587745,2497144],[3501359,2616893],[3410979,2733655],[3316706,2847298],[3218648,2957693],[3116919,3064713],[2981171,3196915],[2110143,2262851],[2214281,2161055],[2286975,2083974],[2424235,1922573],[2550127,1752157],[2608623,1663817],[2679534,1547029]]]}}
]
}
